{"type":"Feature","properties":{"name":"Gilgit-Baltistan"},"geometry":{"type":"Polygon","coordinates":[[[72.50700177982044,35.91908303379252],[72.51913125762195,35.92640826648803],[72.52140469672001,35.936941022685126],[72.53674177767816,35.94725924730252],[72.54095367286097,35.960892523480595],[72.55180613678779,35.964713607755414],[72.54373269011427,35.97426775556192],[72.56747350115674,35.98707762365787],[72.56256951958942,35.993340209802696],[72.5721734438659,36.00151779553821],[72.57139256348255,36.00971405321436],[72.5847340004105,36.017958448592694],[72.58638685496452,36.026246798797374],[72.57633468996605,36.04064569739323],[72.56365862573733,36.04730743490833],[72.53549493065067,36.048284961543224],[72.51628291046029,36.06781548964256],[72.52186376230345,36.09179415479377],[72.51908567594843,36.10056528931449],[72.52418618639776,36.10958320526737],[72.53402098445646,36.12338240792859],[72.55866163188713,36.136800290845365],[72.54846629443053,36.15081931900315],[72.54810151633545,36.166718827635755],[72.53524234828276,36.17360922620094],[72.55005688041179,36.19582379368264],[72.54592196711337,36.20598784387553],[72.56534305014635,36.214186496942965],[72.58352758249552,36.258111012564775],[72.60183521170059,36.2617230718273],[72.61003476331051,36.26902831465806],[72.66220780289734,36.2579350118832],[72.68358465661858,36.24342188610362],[72.6759662624181,36.264715304578026],[72.69247705382224,36.27415000718936],[72.71260650285163,36.27571162687599],[72.73471748274052,36.30011344161939],[72.75843548473767,36.29645235353699],[72.7748030932305,36.315669200972025],[72.801227350561,36.32926179468445],[72.80946167569385,36.35044799359925],[72.8207261717922,36.35961675923643],[72.85546864214146,36.36505515895024],[72.8571531086265,36.37491673784218],[72.87589799068436,36.39267898510094],[72.86827458362058,36.40191458673999],[72.86830120228272,36.41173703752154],[72.87415377036399,36.41892890525278],[72.86168479923718,36.42871037376032],[72.8605601422312,36.43826574112161],[72.8849147226143,36.44215963909214],[72.90499976078323,36.46094951890475],[72.92300356816969,36.453200741875534],[72.94608532839966,36.46258729771721],[72.9785774721512,36.45653894705241],[72.98462070602343,36.47010235527396],[72.98311252116702,36.481304134900356],[72.97366465333812,36.494508625143744],[72.98651189365752,36.50198016999106],[72.97951170506622,36.51271034043343],[73.05187816998502,36.534409715301265],[73.05273242446934,36.556575068284566],[73.07539810324324,36.569414229991935],[73.07649325554168,36.594175282172735],[73.0990004540896,36.60260308714267],[73.06948630079734,36.62702476165992],[73.07561339334366,36.64248051537063],[73.06989995109912,36.649813372975636],[73.07485356132518,36.667175571324876],[73.06810009125137,36.67664850626891],[73.06606155336561,36.69454850217933],[73.08010600363606,36.68059163034923],[73.10289557196299,36.6780875823603],[73.12522104830973,36.69681510031068],[73.15899435650734,36.710940894377316],[73.17247626102123,36.725173482179194],[73.18234642462286,36.71190036256435],[73.18465286366381,36.690756528720584],[73.23270465681321,36.69684894282626],[73.23973535254193,36.70688288245549],[73.30084370723581,36.702529659313605],[73.31340475539419,36.71064507165792],[73.34651908951919,36.71858340343739],[73.35125895056905,36.73697072496074],[73.39222936499576,36.73269219314788],[73.42232623647246,36.745811516865444],[73.4405451542297,36.73381400772343],[73.45189312081052,36.73171733773738],[73.46796206021648,36.73684845261203],[73.4833700699783,36.720419743809146],[73.49988276106819,36.7147060966486],[73.51585602912259,36.72510025073946],[73.52361010096082,36.71388105014289],[73.55028364249502,36.71932704575501],[73.55690117037089,36.71242106168602],[73.5796781288481,36.72526813820645],[73.59420098360309,36.69571568850649],[73.60999302572081,36.69730340999075],[73.61829496705374,36.69236694935333],[73.6379007194683,36.70107782900004],[73.65057185515171,36.69139543159186],[73.68982702144419,36.691398506271945],[73.69588216634276,36.703445249051285],[73.71007905191402,36.71483408321835],[73.72425339608843,36.716316839917326],[73.77294847626936,36.704660982299785],[73.78602316929368,36.71768539841619],[73.80041556847817,36.72065743761296],[73.85335313385005,36.70394266788483],[73.8770389346637,36.70220710363726],[73.88230169781771,36.70598497953708],[73.87963281869573,36.72217459914517],[73.89027214261736,36.729311677530355],[73.88909009096406,36.75011831419584],[73.84669948086403,36.7959163343551],[73.8194422705526,36.79102932503731],[73.79647784596024,36.80489350382188],[73.79752680551401,36.82344898872775],[73.75988154793538,36.81825100290003],[73.74847459699043,36.82938069786595],[73.70435113182099,36.84177615430096],[73.70380866670666,36.861002338982665],[73.66710114481941,36.88606149980687],[73.67187559083884,36.91486599341648],[73.69829951188976,36.916242225247494],[73.71611228782447,36.905745874606176],[73.74994497143825,36.91296446146634],[73.77375081418448,36.89936924282227],[73.79648275375176,36.899411423558064],[73.80067911757439,36.891755886347354],[73.81112484053705,36.89135545328515],[73.82911607006272,36.90402726068773],[73.8344038263141,36.920586436136624],[73.89154272148804,36.91465705681093],[73.90695550985043,36.901615148868686],[73.89264975990277,36.88158893277728],[73.91260157021696,36.870267479559104],[73.93447583217849,36.87453943958326],[73.95456094360674,36.854937247843054],[73.9596807748148,36.84359294031863],[73.98293006884981,36.831749855937154],[74.00919075520045,36.83231095899212],[74.0336539294155,36.825000995058794],[74.06216221686138,36.830725682270064],[74.08618972210252,36.843033738793515],[74.1157549211471,36.83770395622657],[74.13370465013251,36.849575362622545],[74.13984934456431,36.88983725199315],[74.15436294596718,36.9115531641293],[74.25100922763762,36.89875172232322],[74.30954285117782,36.92718720167278],[74.36560245112034,36.970483473072896],[74.40991384544841,36.98518481581217],[74.41813858557263,36.99872539211599],[74.52422881867165,36.99591984902097],[74.53817232876203,36.98288069816851],[74.54187869845039,36.96516000826595],[74.55795799506836,36.95896104356174],[74.57605812351136,36.99849494874552],[74.56542252890146,37.030834430662956],[74.58508749167979,37.03239680458186],[74.62090967096728,37.04521289216417],[74.62525795166697,37.062759965876154],[74.64263152936645,37.06967949693637],[74.6695143737338,37.06983716685243],[74.6823210382093,37.08927126566383],[74.69781774409596,37.0910224801236],[74.7074355263055,37.08029463431543],[74.71015773779692,37.06379889753421],[74.72206357666163,37.05767309526983],[74.71901751714049,37.04317129638076],[74.72641259944508,37.02861498527364],[74.734097907281,37.0238289547595],[74.76550949265847,37.02864497195267],[74.77595510028254,37.024197410760344],[74.79833899960019,37.03277504089389],[74.7908073697984,37.04326620803005],[74.80442954477833,37.054629405360394],[74.83040201626122,37.05142454647703],[74.84615422344304,37.05819395920993],[74.84075368223013,37.04929480986019],[74.84771969427749,37.02904393106757],[74.83950096659727,37.0186516644949],[74.85574683500333,37.0082877478485],[74.85626076669516,36.999957841204065],[74.88308190178887,36.96154728119962],[74.88763450384697,36.9451103788319],[74.88484260945167,36.93792679012879],[74.8894494405878,36.93551124985289],[74.90929933537494,36.932040055401025],[74.92230438793501,36.93603162463816],[74.92034027117752,36.94713750812167],[74.93391964412122,36.947401425957906],[74.93281975220492,36.95656736328826],[74.92576151945254,36.96056125432652],[74.92207234311523,36.98010502381107],[74.94720201613151,36.98965598590215],[74.96686288477515,36.9904792837103],[74.97704380574291,36.99864997571785],[74.98953204680417,36.99141279272095],[75.00519724160053,37.002847342009794],[75.01695724120934,37.0043668979914],[75.02999674175562,37.01822332243405],[75.0635729440439,37.003047105524054],[75.07526105256972,37.00326652106947],[75.08212123766913,37.00980391666809],[75.0979787511216,37.013136877003824],[75.11486182015014,37.00924841573414],[75.14267805555548,37.02919040363221],[75.15331543594162,37.01820002167183],[75.16892310073614,37.01295384267252],[75.16750377048274,37.00635280370472],[75.15917711111322,37.001410400537914],[75.16138232520218,36.992029781662616],[75.19361358053855,36.97531104206921],[75.21732900880193,36.974360291901164],[75.21624158666111,36.968341663151136],[75.23572238148883,36.96021329820138],[75.2612559617246,36.96455121062797],[75.2709727587684,36.9740878565977],[75.29358579157261,36.97744734608147],[75.30785381834134,36.96691129792064],[75.31518266246147,36.971092791409596],[75.32420322905311,36.959607205644865],[75.35857224266725,36.95913160503535],[75.37603887316084,36.94739239424185],[75.40242378502873,36.95620619861975],[75.41041061710735,36.94679676653256],[75.40533688746095,36.93724835731942],[75.38770458516737,36.93149167409416],[75.39156274931575,36.91713920191006],[75.38687458566105,36.90668085990874],[75.42355624176342,36.88896594039508],[75.42030000301607,36.88161072755998],[75.43173609467965,36.83553173699742],[75.41952995122536,36.801594375303964],[75.42624129453495,36.79706073632209],[75.42135834071085,36.77980724734596],[75.42786180071889,36.76439980721878],[75.43529250300556,36.75946015806032],[75.43692246346568,36.749699642905036],[75.44459013128257,36.74621289900285],[75.45370955822024,36.723985536847024],[75.46965392613338,36.71795544635512],[75.4733251441173,36.72538381451072],[75.49879327001119,36.74063524650635],[75.50946319084721,36.7287006218299],[75.53247063745316,36.72249228838227],[75.53864869240022,36.74461913421152],[75.52713201618253,36.75764601803633],[75.53392667510175,36.76388847794042],[75.53418717176235,36.77326588400288],[75.56822195460022,36.77650549689335],[75.56845685394771,36.76969266486183],[75.57383395955132,36.767760725257816],[75.63553641892656,36.771539771128744],[75.66195755783345,36.76492384034902],[75.67111786214717,36.76748012200982],[75.68712845622558,36.760195514066766],[75.69747840291225,36.7478709904306],[75.71163102767366,36.74921258539101],[75.71744456741192,36.75477529227791],[75.72800370622109,36.751920103255934],[75.7481893983322,36.741987684418554],[75.75482810333689,36.73235101744176],[75.79944810605465,36.71316309328565],[75.8054472413874,36.70270149266541],[75.82220966147912,36.696480570017066],[75.82884321511584,36.68684545615053],[75.86538529549104,36.67076152701601],[75.8841412356473,36.642724427271006],[75.90619646905563,36.63492041941718],[75.93334477899113,36.60517906076671],[75.94179461274335,36.605690507262494],[75.93774977209155,36.590603081582934],[75.92298766640194,36.574359684967106],[75.92362869471252,36.56843376455008],[75.937291128554,36.56015324781904],[75.94713052210953,36.543077180784096],[75.95924808149566,36.53602287164325],[75.9667224231942,36.519308963415355],[75.98821254702627,36.50567184249049],[75.98823943310718,36.494702399121536],[76.00720391547144,36.47154785115525],[76.03513853462793,36.4104816837504],[76.02407306235482,36.39428784907085],[76.00410963249801,36.389135842750434],[75.99461642421592,36.363819861486846],[75.982614418123,36.35537412898174],[75.98197485764274,36.346876840923606],[75.99097806870651,36.337311199886905],[75.99312240558365,36.31179544387607],[76.01634701755037,36.30262666116529],[76.02411358315803,36.27256263174405],[76.05352371423332,36.24999025235631],[76.06089381762813,36.22793407839268],[76.0423419659356,36.22658807573627],[76.02725643734591,36.23738804579647],[76.00404054943446,36.23443402795974],[76.00970339169453,36.2143318080618],[76.0058779514189,36.20099501211332],[76.01091217643199,36.19661545299414],[76.00276810018045,36.188429948818836],[76.0123294595865,36.17385503839518],[75.98690190592839,36.1636266260176],[75.9676266605448,36.163696080283685],[75.96187728143434,36.1579938842336],[75.96688799893516,36.15015605458357],[75.93121997697287,36.137134288693964],[75.93089641728871,36.126041077678344],[75.94780788681338,36.11533422759901],[75.94740493849073,36.11112547881614],[75.93587124985734,36.10576191525087],[75.94316901676254,36.08799777906047],[75.95253892640909,36.07982179579886],[75.94211924532343,36.07604901291924],[75.94112745857035,36.07073705316456],[75.95224173655639,36.06686790971125],[75.94857756539479,36.06133638215111],[75.9599948494526,36.04375635444711],[75.99227964825423,36.020839982725676],[76.01354582981708,36.01332992683983],[76.04345767833694,36.02665845000007],[76.08264364678497,36.024930126517184],[76.10283114757037,36.01647278627715],[76.0972477947238,35.99917266671775],[76.10418839279903,35.993899341503784],[76.10751859275487,35.97624512928956],[76.13648973630335,35.95750209916391],[76.14750544789608,35.93059012732518],[76.16127718894089,35.91909772257556],[76.16063185566932,35.90944720375123],[76.14959823965863,35.89209672956249],[76.15437778813855,35.88313524976844],[76.1502996639023,35.87471095138339],[76.15378618690052,35.85885365196521],[76.14242636861123,35.84896298661688],[76.14789131115369,35.83534613211689],[76.17310741258902,35.819048379611274],[76.22114116527871,35.82658619857504],[76.22566963880635,35.84213450084087],[76.26667113196049,35.83841483408763],[76.30272359346603,35.84212627162632],[76.31243978081451,35.83162471376087],[76.3240327164204,35.837233490192986],[76.36137566989613,35.82708812638898],[76.35374951040384,35.85628593146776],[76.36268312576293,35.86485440851502],[76.37069793445333,35.86494434889864],[76.37766565947013,35.858461597242005],[76.429997178465,35.853504579341426],[76.4472961566734,35.865787771914064],[76.45742362667063,35.8840345944781],[76.47398227874375,35.891639645654806],[76.49999981256178,35.88933969338729],[76.51482192099577,35.88161232429733],[76.5447251150959,35.90395501723276],[76.54681112845785,35.927710511338056],[76.5618969320897,35.92383865167427],[76.56698628734924,35.92707703999502],[76.5821877880289,35.92080802647114],[76.59984008718466,35.90157462486689],[76.57445028288444,35.87080299607008],[76.58457225369438,35.864874262287515],[76.58960496795191,35.84355637166287],[76.56715305990586,35.82359972367032],[76.57056956852225,35.811648408192426],[76.59214979697515,35.79690360889556],[76.59639063774944,35.785085314917154],[76.59088084185295,35.77737255495627],[76.60668289123764,35.772361576536866],[76.61778768532005,35.7609318259449],[76.62958542176588,35.77173933198626],[76.64468333276301,35.77286998228818],[76.65561187491484,35.758899826070575],[76.69908224612345,35.75076018253843],[76.70183516281575,35.744172735644725],[76.69668471629363,35.72448264129072],[76.72965893262894,35.71009611731361],[76.74642867199508,35.68880513511991],[76.75993316884997,35.680666880510714],[76.76295942261038,35.663576029642016],[76.77937323910936,35.66050425120459],[76.81476745740635,35.672363120473676],[76.8428581562325,35.671546340902594],[76.85022560928945,35.67648372253121],[76.8667899716612,35.653571460164294],[76.88871873413977,35.640274471664554],[76.90452439999002,35.616559714498116],[76.9355686647191,35.60808553105289],[76.96431203463511,35.59352786454069],[76.98798538887682,35.59968402371413],[77.00071654160479,35.61312151378762],[77.0287971929171,35.599732320922385],[77.06535108163327,35.59656006546819],[77.09267571651907,35.566202023937414],[77.12857997829995,35.555482633341015],[77.14942300435186,35.53875934559883],[77.16859049926676,35.53575619909996],[77.19219294554321,35.520379160504525],[77.2490346197452,35.529290322458706],[77.26481447144043,35.540324954509934],[77.27571923075381,35.53579456609973],[77.29360542778053,35.54400119663941],[77.30657510488196,35.54417305549737],[77.33946029350341,35.52542884883261],[77.33688830934449,35.51298721747714],[77.35007693416824,35.49370712803952],[77.35884042660324,35.49401607291075],[77.35399231333068,35.50059262818321],[77.36654272454594,35.49964047211294],[77.36682229964485,35.491040521377165],[77.37630183780689,35.47602120052524],[77.39107250319422,35.47220207934769],[77.40047290627409,35.47611933295582],[77.42318128206735,35.473502659839895],[77.4410326226209,35.464986181887895],[77.47965550645573,35.484236324456305],[77.5359412556654,35.49137569336808],[77.54395267994211,35.485786914434584],[77.55880102908614,35.490657124249275],[77.58108759808273,35.482830773816445],[77.57839292022412,35.47400208417236],[77.58584063789925,35.47064438587524],[77.60838181679414,35.47409309682891],[77.63659607695038,35.46451963350056],[77.6366864499837,35.48583127490233],[77.65497919530857,35.486473544523314],[77.68957041559432,35.45286157071639],[77.69513898918065,35.463022574946656],[77.73460647070539,35.467397520934576],[77.72828796156561,35.47696263409909],[77.74371855885644,35.498183032540204],[77.75030054150227,35.49731681672419],[77.76022185617825,35.50456500982535],[77.78915595572512,35.49683326053667],[77.79714572676853,35.50015522269784],[77.8046424810301,35.52078122575995],[77.81604222854308,35.522699002552024],[77.82898386481605,35.516419049673274],[77.01093877279678,35.00955720740024],[77.01334587764083,34.99894383588217],[77.0078825907022,34.99372180288698],[77.00851588420178,34.97192471153675],[76.9942996185409,34.93500765046984],[76.87086490416205,34.98518873820168],[76.86147581459971,34.9642150893782],[76.8236137324894,34.95796436438703],[76.77225675987646,34.931662056025594],[76.75835228940186,34.93792465094721],[76.75000271261172,34.910721844664174],[76.7619818450185,34.89190943605295],[76.7574692940289,34.88636713409021],[76.75095739729129,34.82784264361383],[76.71459243874305,34.80805094808873],[76.68498016830361,34.74790126450402],[76.64144808266812,34.7542187171491],[76.60191803352454,34.747503847090044],[76.53527688939,34.77085218383619],[76.50728022938411,34.795626002343084],[76.48095752835594,34.79794864380428],[76.46652003614976,34.79603446191455],[76.4335883208617,34.770907128864316],[76.43774685004637,34.74939530099946],[76.2990809916623,34.7175510023369],[76.26073342710883,34.71528759067045],[76.27234059059037,34.69607851227618],[76.2528060298472,34.688871374059836],[76.25276496092452,34.673233527076555],[76.24061249977527,34.67423589938832],[76.18671335189357,34.65872866278511],[76.16946335447147,34.64670348560455],[76.16199531504948,34.634024137823914],[76.11666255517964,34.64080271891996],[76.10141802787132,34.6494039996401],[76.09978262742783,34.66314821485566],[76.08996174837262,34.66561078006875],[76.08561815809631,34.6742052783043],[76.06261036104242,34.68836472397476],[76.0324282944175,34.686371237994166],[75.99795259503884,34.65238242722092],[75.99281917520824,34.6388069062396],[75.95957517802219,34.634469985589455],[75.9027935229874,34.58716402981057],[75.83312757439246,34.555779868406226],[75.78411929302904,34.510374035320815],[75.7342053106564,34.51852327019424],[75.71747000008617,34.512643553841876],[75.7047682163114,34.52452348954403],[75.67116735043675,34.53722567122394],[75.6437999321808,34.53352670676459],[75.61614624495708,34.52048712419923],[75.59651732195843,34.527662669914065],[75.54258292883333,34.5300170970418],[75.51502976315109,34.54491230682698],[75.50183337550608,34.53653155509005],[75.36366931181199,34.539020716747984],[75.34453376912226,34.56243840079552],[75.32056968381208,34.566045677319806],[75.31190154455591,34.57730544230306],[75.28786624373667,34.58353748493933],[75.2851252246177,34.591745682941394],[75.26539445410143,34.603346937629055],[75.25536433041064,34.59988104611372],[75.24864722022211,34.603354953103384],[75.25570939269582,34.619565108967755],[75.26933426733987,34.621446685938594],[75.27168847724955,34.63192156371021],[75.26745209710363,34.639167195278354],[75.21855724148045,34.64270365746205],[75.19251019095397,34.651244991881846],[75.17874532653907,34.64454843297],[75.16350320649563,34.65653967202854],[75.13835650039067,34.65087782891767],[75.12815828774941,34.65364876165721],[75.12166613183933,34.648203517979574],[75.09944061742287,34.650011408016006],[75.08824525374843,34.655742089182695],[75.05500621214244,34.63545282806741],[75.03543180930313,34.63802824091438],[75.02897855581858,34.62908661400387],[75.00279492619428,34.643569632215744],[74.99671649954031,34.6529440539424],[74.98127417487069,34.64759185525718],[74.9826465347382,34.65125736245539],[74.93240196705219,34.673847133862],[74.86451799656557,34.67395810051718],[74.85295584277249,34.68473107817798],[74.84270110718131,34.67332710560946],[74.7300760195321,34.68167988051237],[74.65165697947354,34.70689096709801],[74.60613297017696,34.738523369745636],[74.59869149865075,34.75465209912617],[74.56843849875102,34.76496777086814],[74.50613909833183,34.770585472070756],[74.4794570656519,34.77960416176608],[74.47557503079007,34.7706403944458],[74.4673539326361,34.772293057119796],[74.46097152513535,34.7810533192287],[74.44173121124645,34.77984929298133],[74.43475053284753,34.773325209755434],[74.3954767660773,34.78601389145964],[74.35292087229429,34.787244606705315],[74.43006822926021,34.81521376122383],[74.43269033828808,34.8416546487662],[74.43854806243476,34.84842542447885],[74.4491881697264,34.84908602915622],[74.45727325627443,34.8606416646061],[74.4983465747946,34.8681213075012],[74.53093510733088,34.861897801736845],[74.54490982857168,34.87527364057083],[74.55608156912729,34.87315134018025],[74.57207289011322,34.88643033284994],[74.5713028167571,34.895509874621176],[74.57793629728549,34.90052444821399],[74.56838473925905,34.90468831636975],[74.57438118447465,34.922673945415205],[74.56537519111053,34.925457244264194],[74.57716987194273,34.943314302602914],[74.56507387995559,34.950209682594],[74.56490215157804,34.95665504983584],[74.57039746816936,34.96074945601146],[74.56584743380907,34.967441365731794],[74.57475606743381,34.97946869467317],[74.57495777846174,34.98948618830919],[74.58838452741047,35.000524525830514],[74.57876734035405,35.01522439639502],[74.55526243046324,35.012819940094325],[74.53440687041386,35.03020243303476],[74.531622849787,35.03765539829556],[74.5411623185721,35.05599368906936],[74.5382657184926,35.068153763524755],[74.51322116485376,35.08311562071804],[74.50934884957688,35.10028854705555],[74.4774397840952,35.11113759943599],[74.46258237790481,35.10638027008792],[74.45245711809916,35.129074087910745],[74.43733251840973,35.13270130866622],[74.42424232615825,35.103810536101356],[74.4066192804238,35.097466237534306],[74.38875981078435,35.08306636939021],[74.37125355337601,35.05859782856015],[74.29497954215016,35.06452916275809],[74.27451181011375,35.04393023419387],[74.24378186996393,35.03702748062861],[74.23219665116456,35.04983574913615],[74.23574538389192,35.0555647765354],[74.23319310384171,35.06749583783853],[74.21287914143575,35.064489288754494],[74.21113604465054,35.085036750953115],[74.20648377009755,35.08992811854422],[74.19972730642027,35.08136161672243],[74.16834103201447,35.07703678998642],[74.1420965165873,35.08627236888938],[74.13288283390294,35.10907646168471],[74.10749806127319,35.12469365487278],[74.112396499642,35.140654253341616],[74.10812164946464,35.14844154649791],[74.09499892310038,35.137086301438885],[74.0718134250445,35.14914077168545],[74.05297430882237,35.14408517034946],[74.02844034749157,35.14482706689123],[74.01773238430124,35.160850200888746],[74.0056140566588,35.16364771967745],[74.00186133806694,35.17921337024343],[73.98080964296544,35.182458987832206],[73.95454840212105,35.16683039549004],[73.92078830320332,35.21164892588839],[73.89411207777425,35.21248219009086],[73.86744009280982,35.20337612686543],[73.85601812363255,35.20908405395112],[73.84792996965855,35.22427865912717],[73.83349917168943,35.22509893598911],[73.80952687308455,35.23968372825786],[73.78589788547977,35.23612612791196],[73.7729792530838,35.221186732111306],[73.74596879744095,35.21900891510188],[73.74300288258021,35.2321783288307],[73.74674646064167,35.23677783167323],[73.7285276023663,35.23936169702395],[73.73650122669797,35.2483401067036],[73.72955789924833,35.2668226815374],[73.72365607916585,35.269912952996],[73.72277948191751,35.27737813552704],[73.70413595259947,35.2861276108172],[73.7085638468188,35.30140596022254],[73.68559402284278,35.32750703910545],[73.69343507304133,35.3383868208165],[73.69190936599185,35.35163230707697],[73.69912839542086,35.34966779355364],[73.69350088550478,35.37304909644245],[73.70719467430847,35.384442351327124],[73.70567340025676,35.393352524502404],[73.71486552974322,35.40110880333675],[73.71985654009414,35.41643592432148],[73.73447048090294,35.42080686997505],[73.75494200314853,35.445834340013576],[73.77842403121508,35.444359237871986],[73.79294624741152,35.450882997907094],[73.784181115551,35.462182091835935],[73.77764669893516,35.50076477398966],[73.7905881932423,35.51852407912964],[73.74216403542034,35.51841289071405],[73.73696497874796,35.529003222391744],[73.72955595344014,35.53270347045065],[73.66638450987122,35.52596523342433],[73.63811153422591,35.53544753600436],[73.61991679174483,35.547892988989766],[73.57512251236743,35.537669687776514],[73.55788930040728,35.52700411413847],[73.52548993272917,35.54340611609061],[73.51028903121761,35.53228820562179],[73.49638562556025,35.53190451277206],[73.48517125322303,35.54158122284557],[73.47592595680486,35.54135656177225],[73.46783558437161,35.53519859852317],[73.43404565754972,35.529905450504465],[73.41178668023856,35.521174410820834],[73.39860774898042,35.536832113196546],[73.3959268390025,35.57469672676421],[73.39923503923931,35.58418742813929],[73.3622969359256,35.59711461812898],[73.34599217351533,35.63293486895884],[73.32947025390602,35.649661923582165],[73.32939097622074,35.65880256309939],[73.32442927665636,35.661868005452504],[73.30744691864116,35.65732924165848],[73.29294911273477,35.66143114134544],[73.28324120984486,35.67151132648509],[73.24026899875538,35.65919773477142],[73.22581209015617,35.670231286818506],[73.20568521582207,35.66847312367919],[73.19338952104248,35.67411576680727],[73.17952213511279,35.68899048031963],[73.15255276551599,35.7027772295163],[73.14357540227381,35.71401324109449],[73.1278026192685,35.71572414961863],[73.11370770348796,35.73610047474393],[73.10935960099394,35.750045500593096],[73.1124035459351,35.75874082449747],[73.15805218666911,35.759511933963545],[73.17133263158387,35.77308274968374],[73.19870778922471,35.78445039468277],[73.19317634999081,35.808488405236524],[73.20152518987162,35.818846880028644],[73.17261618480993,35.85587583770626],[73.16543959924074,35.85509263761499],[73.1501343505355,35.83973776132741],[73.13745239698558,35.83837723013427],[73.10240672246088,35.85661440057077],[73.08597713226598,35.87406630769398],[73.07132201025746,35.8571432602526],[73.05168006499966,35.85849105086376],[73.03984603237078,35.84469345011779],[73.01479994640736,35.83985518696954],[72.99948847338025,35.859033766290274],[72.98471325399831,35.835030847556915],[72.95026824677586,35.83436935539307],[72.93206793196687,35.82832426440067],[72.91164964993162,35.81402127038408],[72.9012075837844,35.81418770397643],[72.89489357769561,35.81694607190048],[72.88566669180237,35.84066607579403],[72.8932445042263,35.848026389178116],[72.89166098299233,35.85480736228141],[72.86373460240318,35.85953943827518],[72.85238373710189,35.85681254552544],[72.84137883481573,35.872800175996616],[72.82563289215707,35.88485141732125],[72.81716607465978,35.853913594487324],[72.79021185066343,35.862642968851446],[72.78421633345036,35.82459806445895],[72.77478685104269,35.82760066451465],[72.76124490460566,35.81836482498436],[72.75024792148099,35.837867204965015],[72.723177837878,35.84006540322705],[72.72524739980892,35.854450025127015],[72.70440714968929,35.85492508807323],[72.69802339524759,35.860396653941876],[72.67259563284411,35.839002359343965],[72.63029052761365,35.846333564414245],[72.62843998547174,35.853761678277074],[72.6052127371045,35.86152705308299],[72.58049023452241,35.857373751060294],[72.5735144295869,35.87429244467295],[72.52678022987074,35.881332945019366],[72.5257626440277,35.891109266315],[72.51108833652542,35.896020157474176],[72.50700177982044,35.91908303379252]]]}}