{"type":"FeatureCollection","features":[{"type":"Feature","properties":{"district":"Astore","division":"Diamer Division"},"geometry":{"type":"Polygon","coordinates":[[[74.7382,35.8304],[74.74,35.8187],[74.7373,35.8031],[74.7292,35.7962],[74.729,35.7901],[74.7414,35.7862],[74.7478,35.7814],[74.7563,35.7729],[74.7588,35.7653],[74.7535,35.7534],[74.7416,35.7468],[74.7435,35.7339],[74.738,35.7232],[74.7416,35.7177],[74.7508,35.7124],[74.7641,35.7117],[74.7698,35.7122],[74.7799,35.7181],[74.7861,35.7169],[74.792,35.7122],[74.8019,35.7115],[74.8129,35.7133],[74.8218,35.7209],[74.8287,35.7206],[74.8454,35.7099],[74.8621,35.7055],[74.8688,35.6991],[74.8752,35.6879],[74.8786,35.6746],[74.8777,35.6679],[74.8708,35.6597],[74.8727,35.6407],[74.8674,35.6354],[74.861,35.6354],[74.8554,35.6319],[74.8514,35.6187],[74.834,35.6162],[74.8328,35.6141],[74.8344,35.6008],[74.8598,35.5806],[74.8659,35.5806],[74.8711,35.5735],[74.8614,35.5605],[74.8835,35.5435],[74.9027,35.536],[74.907,35.5236],[74.9254,35.5245],[74.9469,35.511],[74.9533,35.4961],[74.9597,35.4924],[74.9668,35.4801],[74.9733,35.4755],[74.99,35.47],[74.998,35.4755],[75.006,35.4757],[75.015,35.4606],[75.0156,35.4466],[75.0255,35.4363],[75.0392,35.439],[75.0461,35.4342],[75.0585,35.4347],[75.0656,35.4308],[75.0654,35.4246],[75.069,35.42],[75.0736,35.4184],[75.0869,35.42],[75.1013,35.4012],[75.1018,35.3946],[75.0972,35.3882],[75.0986,35.3863],[75.112,35.3809],[75.128,35.3579],[75.1555,35.3459],[75.1693,35.3299],[75.1716,35.3144],[75.177,35.3061],[75.1756,35.278],[75.1781,35.2709],[75.1779,35.2554],[75.175,35.2523],[75.1737,35.2418],[75.1697,35.2345],[75.1715,35.2249],[75.1935,35.2079],[75.1937,35.2033],[75.1973,35.1983],[75.2062,35.1953],[75.2118,35.19],[75.2257,35.1958],[75.231,35.1932],[75.2378,35.1946],[75.237,35.19],[75.2412,35.1814],[75.2438,35.1654],[75.248,35.1622],[75.2613,35.1624],[75.2658,35.1602],[75.2573,35.154],[75.2366,35.1511],[75.2331,35.1463],[75.2263,35.1463],[75.2188,35.1379],[75.2233,35.1296],[75.2162,35.1274],[75.2118,35.1224],[75.2148,35.1125],[75.2118,35.1079],[75.1937,35.107],[75.1953,35.0923],[75.2015,35.0791],[75.2156,35.0706],[75.2078,35.0462],[75.215,35.0396],[75.2158,35.0299],[75.2255,35.0255],[75.2279,35.0203],[75.2281,35.0108],[75.2247,35.0017],[75.2134,34.9878],[75.2035,34.9826],[75.2001,34.978],[75.2058,34.9631],[75.2114,34.9562],[75.2112,34.9514],[75.1967,34.9393],[75.1887,34.9356],[75.1759,34.9339],[75.1616,34.9354],[75.1524,34.928],[75.15,34.9184],[75.1416,34.9162],[75.1375,34.9126],[75.1286,34.9116],[75.1251,34.9084],[75.1165,34.9082],[75.1043,34.9007],[75.1222,34.8798],[75.1376,34.8753],[75.1455,34.8702],[75.1442,34.8572],[75.1476,34.8522],[75.1455,34.838],[75.1485,34.8337],[75.1759,34.8353],[75.1978,34.822],[75.2323,34.8056],[75.2474,34.7866],[75.2458,34.7743],[75.2476,34.7562],[75.2568,34.7368],[75.2638,34.7279],[75.2618,34.7199],[75.2517,34.7019],[75.2568,34.6882],[75.2521,34.6846],[75.2442,34.6838],[75.2378,34.6761],[75.23,34.6733],[75.2197,34.6525],[75.2078,34.6465],[75.2049,34.6457],[75.1919,34.6513],[75.1882,34.6483],[75.1812,34.6489],[75.1787,34.6445],[75.1761,34.6497],[75.1635,34.6565],[75.1431,34.6549],[75.1384,34.6509],[75.1281,34.6536],[75.1217,34.6482],[75.1088,34.6514],[75.0995,34.65],[75.0881,34.6557],[75.0813,34.6483],[75.055,34.6355],[75.0475,34.6347],[75.0354,34.6381],[75.029,34.6291],[75.0178,34.6373],[75.0028,34.6436],[74.9967,34.6533],[74.9919,34.649],[74.9813,34.6476],[74.9831,34.6511],[74.9324,34.6738],[74.8645,34.674],[74.8606,34.6813],[74.8529,34.6848],[74.8415,34.6745],[74.8427,34.6733],[74.7601,34.6784],[74.7329,34.6832],[74.7301,34.6817],[74.6517,34.7069],[74.6061,34.7385],[74.5988,34.7547],[74.5684,34.765],[74.5061,34.7706],[74.4791,34.7797],[74.4756,34.7706],[74.4674,34.7723],[74.4612,34.7811],[74.4417,34.7799],[74.4348,34.7733],[74.4187,34.7785],[74.4133,34.7827],[74.4053,34.7815],[74.3955,34.786],[74.3529,34.7872],[74.3615,34.7879],[74.3989,34.8055],[74.4301,34.8152],[74.4323,34.8192],[74.4303,34.8295],[74.4327,34.8417],[74.4386,34.8484],[74.4492,34.8491],[74.4568,34.8604],[74.4639,34.8616],[74.4669,34.8595],[74.4805,34.8656],[74.4983,34.8681],[74.5138,34.8659],[74.5204,34.8609],[74.5312,34.8617],[74.5319,34.8647],[74.5419,34.8699],[74.5449,34.8753],[74.5561,34.8731],[74.5636,34.8775],[74.5721,34.8864],[74.5713,34.8955],[74.579,34.9011],[74.5686,34.9033],[74.5696,34.9104],[74.5731,34.9129],[74.5744,34.923],[74.5654,34.9255],[74.5719,34.931],[74.5718,34.9383],[74.5773,34.9432],[74.5674,34.9478],[74.5643,34.9533],[74.5657,34.9578],[74.571,34.9604],[74.5658,34.9674],[74.5748,34.9795],[74.575,34.9895],[74.5887,35.0001],[74.5789,35.0152],[74.57,35.0156],[74.5641,35.0115],[74.5591,35.0142],[74.5553,35.0128],[74.5425,35.0219],[74.5406,35.0277],[74.5344,35.0302],[74.5316,35.0377],[74.5364,35.0502],[74.5412,35.0558],[74.5383,35.0682],[74.5201,35.0772],[74.5132,35.0831],[74.5133,35.0902],[74.5101,35.0941],[74.5117,35.0973],[74.5093,35.1003],[74.4775,35.1111],[74.4626,35.1064],[74.45,35.1312],[74.4351,35.1318],[74.4181,35.1382],[74.4046,35.1455],[74.4044,35.1478],[74.4128,35.1602],[74.4257,35.1671],[74.4328,35.174],[74.4348,35.1792],[74.4403,35.1822],[74.4419,35.187],[74.4484,35.1914],[74.4573,35.1932],[74.463,35.2026],[74.4827,35.2104],[74.4878,35.2196],[74.5026,35.2214],[74.5104,35.2177],[74.5285,35.2184],[74.5411,35.2205],[74.5501,35.2257],[74.5698,35.2264],[74.5888,35.2377],[74.5925,35.2443],[74.5925,35.2503],[74.6131,35.2594],[74.6383,35.259],[74.6548,35.2869],[74.6747,35.3039],[74.6761,35.3162],[74.6832,35.3353],[74.7091,35.3442],[74.715,35.3504],[74.7176,35.3653],[74.7315,35.3843],[74.7242,35.3996],[74.7226,35.4099],[74.7166,35.4173],[74.7164,35.4258],[74.7109,35.4358],[74.7182,35.4427],[74.7157,35.4526],[74.7004,35.4846],[74.6765,35.5011],[74.6788,35.5117],[74.6683,35.5334],[74.6678,35.5518],[74.6587,35.563],[74.6562,35.5747],[74.6546,35.5761],[74.6454,35.5692],[74.6406,35.5749],[74.6383,35.5852],[74.6266,35.5898],[74.6268,35.5944],[74.6323,35.6029],[74.6326,35.6107],[74.614,35.6259],[74.6156,35.6462],[74.6129,35.651],[74.6138,35.656],[74.6184,35.6613],[74.6339,35.6689],[74.6378,35.673],[74.6401,35.6922],[74.6454,35.6968],[74.6481,35.7032],[74.6477,35.709],[74.6312,35.7142],[74.6239,35.7262],[74.6243,35.7426],[74.6374,35.7479],[74.6438,35.7532],[74.652,35.7697],[74.6509,35.774],[74.6472,35.7763],[74.6296,35.7795],[74.6229,35.7857],[74.6232,35.791],[74.6321,35.8061],[74.6447,35.8127],[74.6518,35.8269],[74.6555,35.829],[74.6793,35.8308],[74.6846,35.8338],[74.7001,35.8354],[74.7079,35.8382],[74.7286,35.8519],[74.7368,35.8526],[74.7402,35.8492],[74.7382,35.8304]]]}},{"type":"Feature","properties":{"district":"Diamir","division":"Diamer Division"},"geometry":{"type":"Polygon","coordinates":[[[74.2107,35.6621],[74.216,35.6501],[74.2276,35.6424],[74.2317,35.6299],[74.2557,35.6297],[74.2639,35.6327],[74.263,35.6385],[74.2748,35.6366],[74.2823,35.6402],[74.2872,35.6286],[74.2975,35.6233],[74.3087,35.6226],[74.328,35.6016],[74.3388,35.5939],[74.3506,35.593],[74.3598,35.5979],[74.3703,35.582],[74.3823,35.5726],[74.392,35.5694],[74.3986,35.5698],[74.4067,35.5825],[74.4213,35.5736],[74.4427,35.5679],[74.4522,35.5679],[74.4587,35.5619],[74.4682,35.5593],[74.4756,35.5622],[74.4831,35.575],[74.4859,35.5762],[74.5045,35.5739],[74.5283,35.5759],[74.5354,35.5739],[74.5395,35.5876],[74.5546,35.6002],[74.5638,35.6122],[74.5644,35.6251],[74.5698,35.6294],[74.5807,35.628],[74.5981,35.62],[74.6108,35.6212],[74.616,35.6242],[74.6198,35.6224],[74.6326,35.6107],[74.6323,35.6029],[74.6268,35.5944],[74.6266,35.5898],[74.6383,35.5852],[74.6406,35.5749],[74.6454,35.5692],[74.6546,35.5761],[74.6562,35.5747],[74.6587,35.563],[74.6678,35.5518],[74.6683,35.5334],[74.6788,35.5117],[74.6765,35.5011],[74.6779,35.4986],[74.7004,35.4846],[74.7157,35.4526],[74.7182,35.4427],[74.7109,35.4358],[74.7164,35.4258],[74.7166,35.4173],[74.7226,35.4099],[74.7242,35.3996],[74.7315,35.3843],[74.7176,35.3653],[74.715,35.3504],[74.7091,35.3442],[74.6832,35.3353],[74.6761,35.3162],[74.6747,35.3039],[74.6548,35.2869],[74.6383,35.259],[74.6131,35.2594],[74.5925,35.2503],[74.5925,35.2443],[74.5888,35.2377],[74.5698,35.2264],[74.5501,35.2257],[74.5411,35.2205],[74.5285,35.2184],[74.5104,35.2177],[74.5026,35.2214],[74.4878,35.2196],[74.4827,35.2104],[74.463,35.2026],[74.4573,35.1932],[74.4484,35.1914],[74.4419,35.187],[74.4403,35.1822],[74.4348,35.1792],[74.4328,35.174],[74.4257,35.1671],[74.4128,35.1602],[74.4044,35.1478],[74.4046,35.1455],[74.4181,35.1382],[74.4369,35.1314],[74.4287,35.1115],[74.4242,35.1038],[74.4066,35.0975],[74.3949,35.0855],[74.3887,35.0831],[74.3854,35.0733],[74.3713,35.0586],[74.329,35.0591],[74.295,35.0645],[74.2854,35.0563],[74.2837,35.0503],[74.2602,35.038],[74.2438,35.037],[74.2322,35.0498],[74.2358,35.0555],[74.2331,35.0677],[74.2129,35.0645],[74.2111,35.0852],[74.2065,35.09],[74.2037,35.0832],[74.1997,35.0814],[74.189,35.0817],[74.1683,35.077],[74.1585,35.0781],[74.1421,35.0863],[74.1408,35.095],[74.1343,35.0982],[74.1353,35.1037],[74.1329,35.1091],[74.1075,35.1247],[74.1124,35.1407],[74.1082,35.1484],[74.095,35.1371],[74.0913,35.1377],[74.082,35.1456],[74.0718,35.1491],[74.0636,35.1452],[74.053,35.1441],[74.0382,35.1469],[74.0284,35.1448],[74.0197,35.1551],[74.0178,35.1609],[74.0056,35.1636],[74.0025,35.1697],[74.0018,35.1793],[73.9807,35.1825],[73.9645,35.175],[73.9592,35.167],[73.9545,35.1668],[73.9492,35.1733],[73.9471,35.1809],[73.9422,35.1844],[73.9416,35.1889],[73.9258,35.2012],[73.9249,35.2071],[73.9208,35.2116],[73.9018,35.2098],[73.8941,35.2125],[73.8865,35.2092],[73.8814,35.2101],[73.8674,35.2034],[73.856,35.2091],[73.8543,35.2149],[73.8481,35.2191],[73.8479,35.2243],[73.8335,35.2251],[73.8247,35.2324],[73.8156,35.2348],[73.8097,35.2397],[73.8005,35.2392],[73.7931,35.2344],[73.7859,35.2362],[73.7841,35.2308],[73.773,35.2212],[73.746,35.219],[73.7462,35.2299],[73.743,35.2322],[73.7469,35.2367],[73.7381,35.2358],[73.7285,35.2394],[73.7365,35.2483],[73.7296,35.2668],[73.7237,35.2699],[73.7229,35.2774],[73.715,35.2786],[73.7041,35.2861],[73.7079,35.2935],[73.7086,35.3013],[73.6856,35.3275],[73.687,35.3332],[73.6934,35.3383],[73.6919,35.3516],[73.6991,35.3489],[73.6935,35.373],[73.7072,35.3844],[73.7057,35.3934],[73.7149,35.4011],[73.7198,35.4164],[73.7345,35.4208],[73.7435,35.429],[73.7549,35.4458],[73.762,35.4433],[73.7679,35.4453],[73.7784,35.4444],[73.7929,35.4509],[73.7842,35.4622],[73.7851,35.466],[73.7776,35.5008],[73.7905,35.5177],[73.8,35.5225],[73.8316,35.5182],[73.8438,35.5258],[73.8578,35.5257],[73.8723,35.5373],[73.8879,35.5395],[73.913,35.5477],[73.9238,35.5559],[73.9257,35.5657],[73.9316,35.5732],[73.9603,35.5929],[73.9694,35.6097],[73.9778,35.6195],[73.9994,35.6208],[74.0135,35.6182],[74.0174,35.6199],[74.0238,35.6266],[74.0258,35.6337],[74.0347,35.6409],[74.0349,35.6504],[74.0411,35.6554],[74.0483,35.669],[74.0597,35.6692],[74.0623,35.6716],[74.0753,35.6724],[74.0852,35.6765],[74.1006,35.6763],[74.1151,35.6701],[74.1202,35.6627],[74.1278,35.6634],[74.1384,35.6789],[74.1367,35.6897],[74.146,35.6956],[74.1492,35.702],[74.149,35.7115],[74.1574,35.7189],[74.1709,35.711],[74.1763,35.6924],[74.184,35.6823],[74.1874,35.6735],[74.2107,35.6621]]]}},{"type":"Feature","properties":{"district":"Ghizer","division":"Gilgit Division"},"geometry":{"type":"Polygon","coordinates":[[[73.8475,36.9207],[73.8924,36.9143],[73.898,36.9072],[73.907,36.9016],[73.8923,36.8821],[73.9019,36.8757],[73.9145,36.87],[73.9254,36.8746],[73.9345,36.8745],[73.9546,36.8549],[73.9596,36.8436],[73.9829,36.8318],[74.0092,36.8323],[74.0337,36.825],[74.0462,36.8279],[74.0622,36.8082],[74.0617,36.7987],[74.0649,36.7926],[74.0876,36.7892],[74.1053,36.7804],[74.105,36.7725],[74.1077,36.7701],[74.1048,36.7646],[74.1111,36.7598],[74.1111,36.7474],[74.1103,36.7443],[74.1024,36.7379],[74.0998,36.7279],[74.0929,36.7213],[74.113,36.7202],[74.1118,36.719],[74.1182,36.7176],[74.1372,36.7218],[74.1663,36.7241],[74.1835,36.7141],[74.1975,36.7144],[74.1988,36.7131],[74.1893,36.706],[74.1856,36.6864],[74.2036,36.6758],[74.2429,36.674],[74.2553,36.6708],[74.268,36.6597],[74.2757,36.6489],[74.2891,36.641],[74.3103,36.6349],[74.3169,36.6272],[74.2971,36.613],[74.2873,36.6011],[74.2757,36.5974],[74.2711,36.5897],[74.2329,36.5936],[74.2196,36.5788],[74.1917,36.5643],[74.1884,36.5512],[74.1823,36.5422],[74.1844,36.5361],[74.183,36.5323],[74.1697,36.5316],[74.155,36.5235],[74.128,36.5226],[74.1222,36.519],[74.1215,36.5091],[74.1172,36.5028],[74.1195,36.4951],[74.117,36.4888],[74.1194,36.4856],[74.1131,36.4672],[74.1016,36.4651],[74.0899,36.4584],[74.0888,36.4446],[74.0854,36.4422],[74.0775,36.423],[74.0782,36.4169],[74.0989,36.3966],[74.0989,36.3935],[74.0908,36.3838],[74.0753,36.3736],[74.0626,36.3567],[74.0485,36.3513],[74.0428,36.3427],[74.039,36.3301],[74.0318,36.3222],[74.0291,36.3155],[74.0322,36.2848],[74.0297,36.2654],[74.0311,36.2607],[74.037,36.2548],[74.0435,36.2359],[74.0498,36.2276],[74.0572,36.2226],[74.0739,36.2161],[74.0874,36.1942],[74.0874,36.185],[74.0938,36.1793],[74.1152,36.1719],[74.1224,36.1536],[74.1224,36.1437],[74.1188,36.1363],[74.0994,36.1277],[74.0933,36.1223],[74.0938,36.0964],[74.1084,36.0765],[74.1145,36.0583],[74.1143,36.0549],[74.1109,36.0522],[74.1041,36.0554],[74.0971,36.0526],[74.0805,36.0148],[74.0798,36.0049],[74.0753,35.9972],[74.0756,35.9901],[74.0798,35.9814],[74.0809,35.9724],[74.0859,35.9688],[74.0856,35.9651],[74.0764,35.9596],[74.0651,35.9607],[74.0475,35.9462],[74.0404,35.9462],[74.0356,35.9491],[74.0274,35.9444],[74.0204,35.9439],[74.0062,35.9475],[73.9991,35.9383],[73.9993,35.9136],[73.9944,35.9116],[73.9908,35.901],[73.9654,35.8966],[73.9465,35.9069],[73.9366,35.9082],[73.9376,35.9033],[73.9349,35.8952],[73.9362,35.8867],[73.9432,35.8753],[73.9458,35.8652],[73.9451,35.8497],[73.931,35.8518],[73.9152,35.859],[73.9091,35.859],[73.9071,35.8577],[73.9062,35.8489],[73.8973,35.8473],[73.8906,35.8407],[73.8845,35.8389],[73.8766,35.8398],[73.8689,35.8439],[73.8619,35.8507],[73.8587,35.8638],[73.8485,35.8665],[73.8327,35.8787],[73.8253,35.8692],[73.8099,35.8645],[73.788,35.8685],[73.7836,35.8756],[73.7777,35.8763],[73.7718,35.8805],[73.7663,35.8717],[73.7575,35.8721],[73.7539,35.8823],[73.7466,35.8857],[73.7475,35.8936],[73.7426,35.8968],[73.7478,35.9063],[73.743,35.9103],[73.7405,35.9286],[73.741,35.9331],[73.7457,35.937],[73.7455,35.9415],[73.7362,35.9438],[73.729,35.9505],[73.7295,35.9587],[73.7213,35.9691],[73.7177,35.9783],[73.698,35.9756],[73.694,35.9835],[73.6759,35.9946],[73.6795,36.0066],[73.6608,36.0091],[73.6352,36.0265],[73.6416,36.0371],[73.642,36.0464],[73.6341,36.0631],[73.6549,36.0613],[73.6596,36.0863],[73.6507,36.1158],[73.6422,36.1189],[73.6383,36.1257],[73.6253,36.1359],[73.6281,36.1511],[73.6227,36.1545],[73.6205,36.1627],[73.6261,36.1822],[73.6411,36.1896],[73.6462,36.2031],[73.6476,36.2127],[73.6414,36.2237],[73.6391,36.2342],[73.6496,36.2503],[73.6643,36.259],[73.6996,36.2709],[73.7126,36.2799],[73.716,36.2842],[73.7151,36.3011],[73.7126,36.3025],[73.7114,36.3158],[73.6993,36.3254],[73.6948,36.3398],[73.6979,36.359],[73.6925,36.3799],[73.686,36.383],[73.6806,36.3935],[73.6742,36.3994],[73.6538,36.4039],[73.6595,36.4152],[73.6581,36.4262],[73.6417,36.4294],[73.6284,36.4353],[73.625,36.4395],[73.6182,36.4412],[73.623,36.4429],[73.625,36.4517],[73.6326,36.4568],[73.636,36.4796],[73.634,36.4884],[73.6196,36.4952],[73.6179,36.5042],[73.6095,36.5036],[73.5948,36.513],[73.5843,36.5113],[73.5663,36.5178],[73.5657,36.5265],[73.5598,36.533],[73.5657,36.5418],[73.5657,36.5494],[73.5476,36.5542],[73.5485,36.5672],[73.5359,36.5711],[73.5214,36.5697],[73.5228,36.5828],[73.5264,36.5856],[73.5426,36.5941],[73.5807,36.6012],[73.5828,36.6107],[73.5949,36.6178],[73.5959,36.6234],[73.6065,36.6396],[73.6026,36.6502],[73.5896,36.6644],[73.5853,36.6757],[73.5871,36.6838],[73.596,36.6954],[73.61,36.6973],[73.6165,36.6927],[73.6231,36.6926],[73.6379,36.7011],[73.6505,36.6914],[73.6599,36.6934],[73.6743,36.6905],[73.6899,36.6914],[73.6959,36.7034],[73.7101,36.7148],[73.7243,36.7163],[73.734,36.7119],[73.7729,36.7047],[73.786,36.7177],[73.8007,36.7207],[73.8537,36.7039],[73.8721,36.7018],[73.8816,36.7044],[73.8825,36.7099],[73.8795,36.7217],[73.8902,36.7292],[73.8879,36.7348],[73.8898,36.7393],[73.8892,36.7501],[73.8746,36.7663],[73.8608,36.7767],[73.8457,36.7968],[73.8258,36.7908],[73.8194,36.791],[73.7965,36.8049],[73.7976,36.8235],[73.7737,36.818],[73.7614,36.818],[73.7485,36.8294],[73.7398,36.8294],[73.7229,36.8387],[73.7107,36.8383],[73.704,36.8423],[73.7039,36.8609],[73.6837,36.876],[73.6687,36.8839],[73.6662,36.8894],[73.6719,36.9149],[73.6753,36.9156],[73.7022,36.9154],[73.7162,36.9057],[73.7235,36.9083],[73.7421,36.9085],[73.7499,36.913],[73.7599,36.9066],[73.767,36.9063],[73.7737,36.8994],[73.7965,36.8994],[73.8007,36.8917],[73.8112,36.8914],[73.8179,36.8939],[73.8292,36.9041],[73.8296,36.9151],[73.8344,36.9206],[73.8475,36.9207]]]}},{"type":"Feature","properties":{"district":"Gilgit","division":"Gilgit Division"},"geometry":{"type":"Polygon","coordinates":[[[74.2187,36.1771],[74.2504,36.1763],[74.3069,36.1812],[74.3343,36.1755],[74.354,36.1684],[74.3694,36.1543],[74.4009,36.1168],[74.4281,36.0727],[74.4395,36.083],[74.4517,36.09],[74.4647,36.1141],[74.4836,36.1314],[74.4911,36.142],[74.4955,36.144],[74.5443,36.1473],[74.6087,36.1438],[74.6546,36.1225],[74.6579,36.1199],[74.6607,36.1086],[74.6782,36.0958],[74.7187,36.0866],[74.7371,36.0712],[74.7404,36.0606],[74.7577,36.0594],[74.7686,36.0523],[74.7861,36.0464],[74.8123,36.0464],[74.8469,36.0428],[74.8566,36.0381],[74.8627,36.0331],[74.8686,36.0237],[74.875,36.0043],[74.8937,36.0043],[74.8975,35.995],[74.9112,35.9883],[74.9145,35.9787],[74.933,35.9712],[74.932,35.9619],[74.9351,35.9527],[74.9221,35.9354],[74.9292,35.9354],[74.9469,35.9288],[74.9561,35.9227],[74.9654,35.8995],[74.9677,35.8806],[74.9665,35.8647],[74.962,35.8586],[74.9545,35.8548],[74.8977,35.8406],[74.8958,35.8236],[74.8917,35.816],[74.8787,35.8044],[74.8397,35.7839],[74.8363,35.7787],[74.8309,35.7584],[74.8209,35.7526],[74.7996,35.7496],[74.7587,35.7257],[74.7455,35.7207],[74.7391,35.7209],[74.738,35.7232],[74.7435,35.7339],[74.7409,35.7447],[74.7558,35.7559],[74.7588,35.7653],[74.7563,35.7729],[74.7478,35.7814],[74.7414,35.7862],[74.729,35.7901],[74.7292,35.7962],[74.7373,35.8031],[74.7396,35.8155],[74.7389,35.8509],[74.7368,35.8526],[74.726,35.851],[74.7079,35.8382],[74.7001,35.8354],[74.6846,35.8338],[74.6793,35.8308],[74.6587,35.8302],[74.6518,35.8269],[74.6447,35.8127],[74.6321,35.8061],[74.6226,35.7882],[74.6266,35.7809],[74.6472,35.7763],[74.6509,35.774],[74.652,35.7697],[74.6438,35.7532],[74.6374,35.7479],[74.6243,35.7426],[74.6239,35.7262],[74.628,35.7179],[74.6332,35.7133],[74.6458,35.7104],[74.6481,35.7032],[74.6454,35.6968],[74.6401,35.6922],[74.6378,35.673],[74.6339,35.6689],[74.6184,35.6613],[74.6138,35.656],[74.6129,35.6492],[74.6156,35.6462],[74.6138,35.6269],[74.616,35.6242],[74.6108,35.6212],[74.5981,35.62],[74.5807,35.628],[74.5669,35.628],[74.5638,35.6234],[74.5638,35.6122],[74.5546,35.6002],[74.5395,35.5876],[74.5354,35.5739],[74.5283,35.5759],[74.5045,35.5739],[74.4859,35.5762],[74.4831,35.575],[74.4756,35.5622],[74.4682,35.5593],[74.4587,35.5619],[74.4522,35.5679],[74.4427,35.5679],[74.4213,35.5736],[74.4067,35.5825],[74.4006,35.5709],[74.392,35.5694],[74.3823,35.5726],[74.3703,35.582],[74.3598,35.5979],[74.3506,35.593],[74.3388,35.5939],[74.328,35.6016],[74.3087,35.6226],[74.2975,35.6233],[74.2872,35.6286],[74.2823,35.6402],[74.2748,35.6366],[74.263,35.6385],[74.2639,35.6327],[74.2557,35.6297],[74.2317,35.6299],[74.2276,35.6424],[74.216,35.6501],[74.211,35.6619],[74.1898,35.6713],[74.1859,35.6752],[74.184,35.6823],[74.1763,35.6924],[74.1688,35.7135],[74.1581,35.7176],[74.1554,35.7224],[74.1391,35.7237],[74.0943,35.7675],[74.0684,35.7657],[74.0523,35.7693],[74.0422,35.7913],[74.0339,35.7976],[74.033,35.8032],[74.0285,35.8088],[74.0291,35.8187],[74.0249,35.8238],[74.0146,35.823],[74.0042,35.8131],[73.9827,35.8131],[73.9649,35.8176],[73.9456,35.8294],[73.944,35.8414],[73.9458,35.8652],[73.9432,35.8753],[73.9362,35.8867],[73.9349,35.8952],[73.9376,35.9033],[73.9366,35.9082],[73.9465,35.9069],[73.9654,35.8966],[73.9908,35.901],[73.9944,35.9116],[73.9993,35.9136],[73.9991,35.9383],[74.0062,35.9475],[74.0204,35.9439],[74.0274,35.9444],[74.0356,35.9491],[74.0457,35.9458],[74.0651,35.9607],[74.0764,35.9596],[74.0825,35.9616],[74.0859,35.9688],[74.0809,35.9724],[74.0753,35.9936],[74.0798,36.0049],[74.0805,36.0148],[74.0971,36.0526],[74.1041,36.0554],[74.1109,36.0522],[74.1143,36.0549],[74.1136,36.0644],[74.1084,36.0765],[74.0938,36.0964],[74.0929,36.1124],[74.0944,36.1241],[74.1188,36.1363],[74.1215,36.1399],[74.1224,36.1536],[74.119,36.166],[74.1152,36.1719],[74.0938,36.1793],[74.0874,36.185],[74.0874,36.1942],[74.0793,36.2086],[74.0714,36.2183],[74.0597,36.221],[74.0473,36.2303],[74.037,36.2548],[74.0311,36.2607],[74.0297,36.2654],[74.0322,36.2848],[74.0291,36.3155],[74.0318,36.3222],[74.039,36.3301],[74.0428,36.3427],[74.0485,36.3513],[74.0626,36.3567],[74.0778,36.3759],[74.0808,36.3776],[74.0843,36.3483],[74.0928,36.3309],[74.0962,36.3271],[74.114,36.3234],[74.1256,36.3176],[74.1427,36.2978],[74.1462,36.2935],[74.1485,36.2746],[74.1569,36.2488],[74.1656,36.2343],[74.1845,36.2195],[74.2004,36.2105],[74.21,36.189],[74.2187,36.1771]]]}},{"type":"Feature","properties":{"district":"Hunza","division":"Gilgit Division"},"geometry":{"type":"Polygon","coordinates":[[[74.709,37.0685],[74.7124,37.0615],[74.7221,37.0577],[74.7187,37.0449],[74.7219,37.0371],[74.7253,37.0365],[74.7264,37.0286],[74.7364,37.0235],[74.75,37.0235],[74.7655,37.0286],[74.7759,37.0242],[74.7817,37.0285],[74.7986,37.0327],[74.7923,37.0383],[74.7908,37.0433],[74.8044,37.0546],[74.813,37.0555],[74.8304,37.0514],[74.8462,37.0582],[74.8407,37.0493],[74.8477,37.0291],[74.8395,37.0187],[74.8465,37.0112],[74.8557,37.0083],[74.8563,37.0],[74.8761,36.9712],[74.8776,36.965],[74.8831,36.9615],[74.8823,36.9546],[74.8876,36.9451],[74.8849,36.9377],[74.8894,36.9355],[74.8996,36.9362],[74.9083,36.932],[74.9139,36.9353],[74.9224,36.9361],[74.9205,36.9472],[74.9301,36.9453],[74.9339,36.9471],[74.9328,36.9566],[74.9258,36.9606],[74.9225,36.9803],[74.9303,36.9809],[74.9477,36.9898],[74.9669,36.9905],[74.9767,36.9986],[74.9808,36.9963],[74.9817,36.993],[74.9896,36.9914],[74.9983,36.9951],[75.0004,36.9997],[75.0052,37.0028],[75.0169,37.0043],[75.0212,37.0122],[75.03,37.0182],[75.0439,37.0145],[75.0458,37.0095],[75.0547,37.0041],[75.0742,37.0031],[75.0821,37.0098],[75.0903,37.0092],[75.0974,37.0131],[75.1077,37.0124],[75.1148,37.0092],[75.1171,37.0139],[75.1266,37.0146],[75.1356,37.0271],[75.1427,37.0292],[75.1486,37.0272],[75.1532,37.0182],[75.1643,37.0175],[75.1689,37.013],[75.1675,37.0064],[75.1612,37.0044],[75.1592,37.0014],[75.1614,36.992],[75.1749,36.9876],[75.18,36.9798],[75.1936,36.9753],[75.1994,36.978],[75.2173,36.9744],[75.2162,36.9683],[75.2357,36.9602],[75.2542,36.9657],[75.2611,36.9645],[75.2693,36.9691],[75.271,36.9741],[75.2936,36.9774],[75.3079,36.9669],[75.3152,36.9711],[75.3198,36.9679],[75.3241,36.9596],[75.3586,36.9591],[75.376,36.9474],[75.3927,36.9513],[75.3931,36.956],[75.4024,36.9562],[75.4104,36.9468],[75.4053,36.9372],[75.3877,36.9315],[75.3908,36.9261],[75.3916,36.9171],[75.3867,36.9064],[75.4236,36.889],[75.4203,36.8815],[75.4239,36.8761],[75.4243,36.8625],[75.4298,36.8507],[75.4273,36.8481],[75.4281,36.84],[75.4317,36.8355],[75.43,36.8282],[75.4249,36.8223],[75.4225,36.8049],[75.4191,36.8015],[75.4262,36.7971],[75.4213,36.7799],[75.4278,36.7644],[75.4353,36.7594],[75.4368,36.7497],[75.4446,36.7462],[75.4537,36.724],[75.4697,36.718],[75.4733,36.7254],[75.4858,36.7308],[75.4988,36.7406],[75.5094,36.7287],[75.5313,36.7219],[75.5385,36.7352],[75.5369,36.7412],[75.5387,36.7447],[75.5353,36.7462],[75.5271,36.7576],[75.5339,36.7639],[75.5339,36.7729],[75.5576,36.7729],[75.5682,36.7765],[75.5684,36.7697],[75.5739,36.7678],[75.5857,36.7704],[75.5966,36.7688],[75.6174,36.7712],[75.6267,36.7682],[75.6355,36.7715],[75.662,36.7649],[75.6711,36.7675],[75.6748,36.7628],[75.6871,36.7602],[75.6976,36.7478],[75.709,36.7483],[75.7174,36.7548],[75.7219,36.754],[75.7482,36.742],[75.7548,36.7323],[75.7995,36.7132],[75.8055,36.7027],[75.8222,36.6965],[75.8288,36.6869],[75.844,36.6777],[75.8574,36.675],[75.8654,36.6708],[75.8681,36.6641],[75.8799,36.6513],[75.8842,36.6427],[75.9062,36.6349],[75.9334,36.6051],[75.9418,36.6057],[75.9381,36.6002],[75.9378,36.5906],[75.923,36.5744],[75.9236,36.5684],[75.9273,36.5643],[75.9373,36.5601],[75.9429,36.5537],[75.9471,36.5431],[75.9592,36.536],[75.9667,36.5193],[75.9882,36.5057],[75.9882,36.4948],[75.9915,36.4894],[76.0,36.484],[76.0072,36.4715],[76.0119,36.4552],[76.0181,36.4467],[76.0214,36.4367],[76.025,36.4357],[76.0301,36.4145],[76.0351,36.4105],[76.0257,36.4011],[76.0241,36.3943],[76.0042,36.3892],[75.9985,36.3817],[75.9951,36.3648],[75.9901,36.3582],[75.983,36.3559],[75.9819,36.3469],[75.9847,36.3411],[75.991,36.3373],[75.9931,36.3118],[76.0,36.307],[76.0163,36.3026],[76.0216,36.2898],[76.0194,36.2857],[76.0239,36.2804],[76.0241,36.2725],[76.0368,36.2665],[76.046,36.253],[76.0535,36.25],[76.0605,36.2359],[76.0578,36.2318],[76.0609,36.2279],[76.0513,36.2255],[76.0423,36.2266],[76.0337,36.2305],[76.0317,36.2356],[76.0273,36.2374],[76.0127,36.2375],[76.004,36.2344],[76.007,36.2262],[76.0059,36.2183],[76.0097,36.2143],[76.0075,36.2096],[76.0086,36.2048],[76.0057,36.201],[76.0109,36.1966],[76.0027,36.1885],[76.0107,36.1809],[76.0123,36.1739],[76.0035,36.1674],[75.9944,36.1679],[75.9869,36.1636],[75.9815,36.1655],[75.9676,36.1637],[75.9624,36.1612],[75.9619,36.158],[75.9669,36.1502],[75.9458,36.1403],[75.9314,36.1375],[75.9308,36.1261],[75.9398,36.1234],[75.9477,36.116],[75.9474,36.1111],[75.938,36.1081],[75.9359,36.1045],[75.9427,36.0956],[75.9432,36.0879],[75.9525,36.0798],[75.9421,36.076],[75.9421,36.07],[75.9325,36.0615],[75.9266,36.0586],[75.9127,36.0583],[75.9089,36.0554],[75.9112,36.0477],[75.91,36.0432],[75.9018,36.0426],[75.89,36.0375],[75.8657,36.0194],[75.8566,36.0215],[75.8436,36.0198],[75.8341,36.0215],[75.8155,36.0126],[75.8096,36.012],[75.7768,36.0181],[75.7687,36.0286],[75.7679,36.0371],[75.7556,36.0513],[75.7547,36.0639],[75.7396,36.0649],[75.7249,36.0747],[75.7232,36.0873],[75.7332,36.0934],[75.7332,36.1024],[75.7003,36.1222],[75.683,36.1392],[75.6752,36.1402],[75.6731,36.1308],[75.6577,36.1259],[75.6018,36.1226],[75.5848,36.1241],[75.5754,36.1217],[75.5299,36.137],[75.4859,36.1407],[75.4735,36.1441],[75.4314,36.1689],[75.4248,36.1823],[75.4227,36.1977],[75.4172,36.2051],[75.3755,36.217],[75.3655,36.2287],[75.3614,36.2387],[75.3542,36.2453],[75.3327,36.2452],[75.3239,36.2413],[75.2973,36.2196],[75.2839,36.2267],[75.261,36.2342],[75.256,36.2381],[75.2424,36.2578],[75.2374,36.2719],[75.2285,36.2807],[75.2238,36.2939],[75.2242,36.3066],[75.2122,36.3166],[75.1877,36.3244],[75.155,36.3129],[75.1455,36.3052],[75.0854,36.2889],[75.0783,36.2907],[75.0663,36.3009],[75.0541,36.3166],[75.0334,36.3188],[75.0141,36.3261],[75.0053,36.3268],[74.9955,36.3241],[74.9738,36.3121],[74.9599,36.3086],[74.9443,36.3084],[74.8905,36.3166],[74.8758,36.3192],[74.8698,36.3236],[74.8549,36.3148],[74.8432,36.311],[74.8369,36.3052],[74.8311,36.3055],[74.8217,36.3109],[74.8114,36.312],[74.7941,36.3098],[74.7839,36.3021],[74.7601,36.3088],[74.7296,36.3023],[74.712,36.3107],[74.6897,36.3142],[74.6431,36.3114],[74.6337,36.3102],[74.6228,36.2994],[74.6122,36.297],[74.6092,36.2934],[74.6143,36.2897],[74.6135,36.2816],[74.6069,36.2751],[74.5989,36.2725],[74.5949,36.2593],[74.589,36.2575],[74.5528,36.2605],[74.5174,36.2481],[74.4983,36.2494],[74.4892,36.2472],[74.4646,36.2494],[74.4482,36.2464],[74.4014,36.2521],[74.3894,36.2562],[74.3928,36.2685],[74.4088,36.2895],[74.4153,36.3084],[74.4221,36.319],[74.4614,36.3612],[74.4847,36.3788],[74.4834,36.3856],[74.4784,36.3905],[74.4761,36.3982],[74.4673,36.4077],[74.4495,36.4176],[74.4395,36.4266],[74.4386,36.4347],[74.4419,36.442],[74.4489,36.4495],[74.4543,36.4598],[74.4633,36.4669],[74.4898,36.4826],[74.5192,36.4945],[74.5491,36.5129],[74.4458,36.5581],[74.3708,36.5799],[74.3411,36.5857],[74.2788,36.5887],[74.2738,36.5918],[74.2757,36.5974],[74.2873,36.6011],[74.2971,36.613],[74.3153,36.6254],[74.3169,36.6272],[74.314,36.6317],[74.2984,36.6397],[74.2868,36.642],[74.2757,36.6489],[74.268,36.6597],[74.2553,36.6708],[74.2429,36.674],[74.2036,36.6758],[74.1856,36.6864],[74.1893,36.706],[74.1988,36.7131],[74.1975,36.7144],[74.1835,36.7141],[74.1663,36.7241],[74.1372,36.7218],[74.1182,36.7176],[74.1118,36.719],[74.113,36.7202],[74.0929,36.7213],[74.0998,36.7279],[74.1024,36.7379],[74.1103,36.7443],[74.1111,36.7474],[74.1111,36.7598],[74.1048,36.7646],[74.1077,36.7701],[74.105,36.7725],[74.1053,36.7804],[74.0876,36.7892],[74.0649,36.7926],[74.0617,36.7987],[74.0622,36.8082],[74.0462,36.8279],[74.0641,36.8314],[74.0862,36.843],[74.0997,36.8422],[74.1158,36.8377],[74.1326,36.8486],[74.1329,36.8621],[74.1389,36.8776],[74.1398,36.8898],[74.1544,36.9116],[74.2174,36.9054],[74.2428,36.8981],[74.251,36.8987],[74.2777,36.9097],[74.3095,36.9272],[74.3483,36.9599],[74.3656,36.9705],[74.3814,36.9774],[74.3992,36.9798],[74.4099,36.9852],[74.4154,36.99],[74.4181,36.9987],[74.5242,36.9959],[74.5303,36.9928],[74.5382,36.9829],[74.5418,36.9652],[74.5579,36.9589],[74.5627,36.9757],[74.5761,36.9984],[74.5654,37.0308],[74.5851,37.0324],[74.6209,37.0452],[74.6241,37.0481],[74.6233,37.0605],[74.6253,37.0628],[74.6426,37.0697],[74.6536,37.07],[74.6587,37.0677],[74.6695,37.0698],[74.6732,37.0726],[74.6745,37.0791],[74.6823,37.0893],[74.6988,37.0907],[74.7074,37.0803],[74.709,37.0685]]]}},{"type":"Feature","properties":{"district":"Skardu","division":"Baltistan Division"},"geometry":{"type":"Polygon","coordinates":[[[75.631,35.4251],[75.6678,35.3896],[75.6906,35.3585],[75.6643,35.3303],[75.6596,35.3209],[75.6512,35.3167],[75.6529,35.3022],[75.6555,35.3001],[75.664,35.2968],[75.6763,35.2972],[75.6842,35.3037],[75.6901,35.315],[75.7017,35.3184],[75.7083,35.3177],[75.7209,35.3032],[75.7286,35.3044],[75.7387,35.3101],[75.7542,35.3098],[75.7604,35.3111],[75.7642,35.3145],[75.7802,35.3145],[75.7949,35.3229],[75.8015,35.3478],[75.8067,35.3495],[75.8146,35.3433],[75.8212,35.3451],[75.8311,35.3436],[75.8409,35.3354],[75.8575,35.3061],[75.8604,35.2679],[75.8713,35.2467],[75.874,35.2324],[75.8777,35.23],[75.9123,35.2284],[75.9345,35.2069],[75.9354,35.1943],[75.9388,35.1903],[75.9542,35.1805],[75.982,35.1542],[75.991,35.1505],[75.9787,35.1418],[75.9595,35.1394],[75.9545,35.1353],[75.9478,35.1339],[75.9122,35.1455],[75.9039,35.1461],[75.8947,35.151],[75.8798,35.1526],[75.8671,35.1492],[75.8457,35.1558],[75.8367,35.1547],[75.8304,35.1505],[75.8137,35.1539],[75.7779,35.1422],[75.7616,35.1308],[75.7402,35.1265],[75.7141,35.1064],[75.7067,35.095],[75.6934,35.0904],[75.6599,35.0979],[75.6453,35.0928],[75.6398,35.0874],[75.6199,35.0802],[75.5925,35.0786],[75.5815,35.0727],[75.4685,35.0691],[75.4309,35.0591],[75.3119,35.034],[75.2267,35.0597],[75.2153,35.0666],[75.2156,35.0706],[75.2015,35.0791],[75.1953,35.0923],[75.1937,35.107],[75.2118,35.1079],[75.2148,35.1125],[75.2118,35.1224],[75.2162,35.1274],[75.2233,35.1296],[75.2188,35.1379],[75.22,35.1409],[75.2263,35.1463],[75.2331,35.1463],[75.2366,35.1511],[75.2573,35.154],[75.2658,35.1602],[75.2613,35.1624],[75.248,35.1622],[75.2438,35.1654],[75.2412,35.1814],[75.237,35.19],[75.2378,35.1946],[75.231,35.1932],[75.2257,35.1958],[75.2118,35.19],[75.2062,35.1953],[75.1973,35.1983],[75.1937,35.2033],[75.1935,35.2079],[75.1703,35.2267],[75.1697,35.2345],[75.1737,35.2418],[75.175,35.2523],[75.1779,35.2554],[75.1781,35.2709],[75.1756,35.278],[75.177,35.3061],[75.1716,35.3144],[75.1676,35.3335],[75.1815,35.3386],[75.2673,35.3531],[75.3013,35.3529],[75.317,35.368],[75.3199,35.3778],[75.3283,35.3868],[75.3374,35.3915],[75.3544,35.3944],[75.3667,35.4053],[75.3876,35.4143],[75.3911,35.4265],[75.396,35.4309],[75.4128,35.4382],[75.4337,35.4541],[75.4481,35.4589],[75.4544,35.4652],[75.4747,35.4587],[75.4758,35.4499],[75.495,35.4237],[75.5075,35.4286],[75.5567,35.4688],[75.585,35.4825],[75.5886,35.4731],[75.631,35.4251]]]}},{"type":"Feature","properties":{"district":"Nagar","division":"Gilgit Division"},"geometry":{"type":"Polygon","coordinates":[[[74.2703,36.5899],[74.2738,36.5918],[74.2788,36.5887],[74.3411,36.5857],[74.3708,36.5799],[74.4458,36.5581],[74.5491,36.5129],[74.5192,36.4945],[74.4898,36.4826],[74.4633,36.4669],[74.4543,36.4598],[74.4489,36.4495],[74.4419,36.442],[74.4386,36.4347],[74.4395,36.4266],[74.4495,36.4176],[74.4673,36.4077],[74.4761,36.3982],[74.4784,36.3905],[74.4834,36.3856],[74.4847,36.3788],[74.4614,36.3612],[74.4221,36.319],[74.4153,36.3084],[74.4088,36.2895],[74.3928,36.2685],[74.3894,36.2562],[74.4014,36.2521],[74.4482,36.2464],[74.4646,36.2494],[74.4892,36.2472],[74.4983,36.2494],[74.5174,36.2481],[74.5528,36.2605],[74.589,36.2575],[74.5949,36.2593],[74.5989,36.2725],[74.6069,36.2751],[74.6135,36.2816],[74.6143,36.2897],[74.6092,36.2934],[74.6122,36.297],[74.6228,36.2994],[74.6337,36.3102],[74.6431,36.3114],[74.6897,36.3142],[74.712,36.3107],[74.7296,36.3023],[74.7601,36.3088],[74.7839,36.3021],[74.7941,36.3098],[74.8114,36.312],[74.8217,36.3109],[74.8311,36.3055],[74.8369,36.3052],[74.8432,36.311],[74.8549,36.3148],[74.8698,36.3236],[74.8758,36.3192],[74.8905,36.3166],[74.9443,36.3084],[74.9599,36.3086],[74.9738,36.3121],[74.9955,36.3241],[75.0053,36.3268],[75.0141,36.3261],[75.0334,36.3188],[75.0541,36.3166],[75.0663,36.3009],[75.0783,36.2907],[75.0854,36.2889],[75.1455,36.3052],[75.155,36.3129],[75.1877,36.3244],[75.2122,36.3166],[75.2242,36.3066],[75.2238,36.2939],[75.2285,36.2807],[75.2374,36.2719],[75.2424,36.2578],[75.256,36.2381],[75.2973,36.2196],[75.2853,36.2062],[75.2758,36.2014],[75.2621,36.2027],[75.2301,36.1957],[75.2079,36.203],[75.1939,36.1916],[75.1885,36.1564],[75.1622,36.1123],[75.1444,36.0688],[75.1395,36.0667],[75.1346,36.0745],[75.132,36.0745],[75.1181,36.0599],[75.1124,36.0481],[75.0874,36.0379],[75.0781,36.0371],[75.0663,36.0409],[75.0574,36.035],[75.0489,36.035],[75.0396,36.043],[75.0362,36.0695],[75.0223,36.0789],[75.0164,36.0861],[75.0121,36.0857],[75.007,36.0692],[75.0011,36.0654],[74.9617,36.0474],[74.9504,36.0461],[74.9432,36.0498],[74.933,36.0426],[74.9121,36.039],[74.9065,36.0336],[74.9046,36.0211],[74.8937,36.0043],[74.875,36.0043],[74.8653,36.0296],[74.8506,36.0421],[74.8123,36.0464],[74.7861,36.0464],[74.7686,36.0523],[74.7577,36.0594],[74.7404,36.0606],[74.7371,36.0712],[74.7187,36.0866],[74.6782,36.0958],[74.6607,36.1086],[74.6579,36.1199],[74.6546,36.1225],[74.6087,36.1438],[74.6005,36.1455],[74.5818,36.1446],[74.5443,36.1473],[74.4955,36.144],[74.4911,36.142],[74.4836,36.1314],[74.4647,36.1141],[74.4517,36.09],[74.4395,36.083],[74.4281,36.0727],[74.4009,36.1168],[74.3694,36.1543],[74.354,36.1684],[74.3343,36.1755],[74.3069,36.1812],[74.2504,36.1763],[74.2187,36.1771],[74.21,36.189],[74.2004,36.2105],[74.1845,36.2195],[74.1656,36.2343],[74.1554,36.2529],[74.1476,36.2784],[74.1462,36.2935],[74.1256,36.3176],[74.114,36.3234],[74.0962,36.3271],[74.087,36.3399],[74.0843,36.3483],[74.0808,36.3776],[74.0935,36.3865],[74.0989,36.3966],[74.0782,36.4169],[74.0775,36.423],[74.0854,36.4422],[74.0888,36.4446],[74.0899,36.4584],[74.1016,36.4651],[74.1131,36.4672],[74.1194,36.4856],[74.117,36.4888],[74.1195,36.4951],[74.1172,36.5028],[74.1215,36.5091],[74.1222,36.519],[74.128,36.5226],[74.155,36.5235],[74.1697,36.5316],[74.183,36.5323],[74.1844,36.5361],[74.1823,36.5422],[74.1884,36.5512],[74.1917,36.5643],[74.2196,36.5788],[74.2329,36.5936],[74.2703,36.5899]]]}},{"type":"Feature","properties":{"district":"Kharmang","division":"Baltistan Division"},"geometry":{"type":"Polygon","coordinates":[[[75.8457,35.1558],[75.869,35.1491],[75.8836,35.1526],[75.8976,35.1505],[75.9039,35.1461],[75.9122,35.1455],[75.9478,35.1339],[75.9545,35.1353],[75.9595,35.1394],[75.9787,35.1418],[75.991,35.1505],[76.0027,35.1497],[76.0154,35.1439],[76.028,35.1433],[76.1036,35.1198],[76.126,35.108],[76.1378,35.1045],[76.1634,35.0861],[76.1783,35.0795],[76.1933,35.0775],[76.205,35.0729],[76.27,35.066],[76.2861,35.0505],[76.2941,35.0474],[76.3369,35.0468],[76.3502,35.0333],[76.3602,35.0298],[76.3772,35.018],[76.3947,35.0134],[76.393,35.0015],[76.3973,34.9951],[76.4091,34.9878],[76.4128,34.9826],[76.4137,34.9756],[76.4086,34.9567],[76.4112,34.9426],[76.452,34.8733],[76.4516,34.8631],[76.4557,34.8443],[76.4706,34.8297],[76.4926,34.8185],[76.4959,34.8128],[76.4935,34.805],[76.485,34.7981],[76.4665,34.7961],[76.4537,34.7866],[76.4505,34.7807],[76.4335,34.7709],[76.4377,34.7494],[76.2991,34.7175],[76.2602,34.7154],[76.2723,34.6961],[76.2588,34.6935],[76.2528,34.6889],[76.251,34.6856],[76.2551,34.6754],[76.2528,34.6732],[76.2406,34.6742],[76.216,34.6653],[76.1867,34.6587],[76.1694,34.6467],[76.162,34.634],[76.1501,34.6349],[76.145,34.6382],[76.1384,34.6351],[76.1329,34.6399],[76.1167,34.6408],[76.1112,34.6464],[76.1014,34.6494],[76.0998,34.6631],[76.09,34.6656],[76.0856,34.6742],[76.0626,34.6884],[76.0324,34.6864],[75.998,34.6524],[75.9928,34.6388],[75.9702,34.6388],[75.9595,34.6345],[75.9028,34.5872],[75.8331,34.5558],[75.7841,34.5104],[75.7342,34.5185],[75.7225,34.5127],[75.7175,34.5126],[75.7048,34.5245],[75.6712,34.5372],[75.6438,34.5335],[75.6162,34.5205],[75.5965,34.5277],[75.5426,34.53],[75.515,34.5449],[75.5087,34.5443],[75.5018,34.5365],[75.4938,34.5387],[75.4482,34.5403],[75.3637,34.539],[75.3446,34.5624],[75.3375,34.5628],[75.3298,34.567],[75.3206,34.566],[75.3134,34.5727],[75.3119,34.5773],[75.3039,34.5773],[75.2879,34.5835],[75.2852,34.5917],[75.2692,34.5993],[75.265,34.6035],[75.2629,34.601],[75.2554,34.5999],[75.2486,34.6034],[75.2557,34.6196],[75.2606,34.6175],[75.2694,34.6215],[75.2717,34.6319],[75.2676,34.6393],[75.2557,34.6377],[75.2373,34.6422],[75.2185,34.6427],[75.2078,34.6465],[75.2197,34.6525],[75.23,34.6733],[75.2378,34.6761],[75.2442,34.6838],[75.2521,34.6846],[75.2568,34.6882],[75.2517,34.7019],[75.2618,34.7199],[75.2638,34.7279],[75.2568,34.7368],[75.2476,34.7562],[75.2458,34.7743],[75.2474,34.7866],[75.2323,34.8056],[75.1978,34.822],[75.1759,34.8353],[75.1485,34.8337],[75.1455,34.838],[75.1476,34.8522],[75.1442,34.8572],[75.1455,34.8702],[75.1376,34.8753],[75.1222,34.8798],[75.1043,34.9007],[75.1165,34.9082],[75.1251,34.9084],[75.1286,34.9116],[75.1375,34.9126],[75.1416,34.9162],[75.15,34.9184],[75.1524,34.928],[75.1616,34.9354],[75.1759,34.9339],[75.1887,34.9356],[75.1967,34.9393],[75.2112,34.9514],[75.2114,34.9562],[75.2058,34.9631],[75.2001,34.978],[75.2035,34.9826],[75.2134,34.9878],[75.2247,35.0017],[75.2281,35.0108],[75.2275,35.0235],[75.2158,35.0299],[75.215,35.0396],[75.2078,35.0462],[75.208,35.0517],[75.2153,35.0666],[75.2267,35.0597],[75.3119,35.034],[75.3232,35.0353],[75.3301,35.039],[75.3489,35.0409],[75.4685,35.0691],[75.5815,35.0727],[75.5925,35.0786],[75.6199,35.0802],[75.6398,35.0874],[75.6453,35.0928],[75.6599,35.0979],[75.6934,35.0904],[75.7067,35.095],[75.7141,35.1064],[75.7402,35.1265],[75.7616,35.1308],[75.7779,35.1422],[75.8137,35.1539],[75.8304,35.1505],[75.8367,35.1547],[75.8457,35.1558]]]}},{"type":"Feature","properties":{"district":"Darel","division":"Diamer Division"},"geometry":{"type":"Polygon","coordinates":[[[73.5677,35.8707],[73.5819,35.8728],[73.6223,35.8605],[73.6265,35.8632],[73.6313,35.8734],[73.6388,35.8779],[73.6711,35.8719],[73.6801,35.8788],[73.6874,35.8731],[73.6985,35.8716],[73.7208,35.8584],[73.7416,35.8568],[73.7479,35.8532],[73.7642,35.8502],[73.7604,35.8717],[73.7663,35.8717],[73.7718,35.8805],[73.7777,35.8763],[73.7836,35.8756],[73.788,35.8685],[73.8061,35.8645],[73.8253,35.8692],[73.8327,35.8787],[73.8485,35.8665],[73.8587,35.8638],[73.8619,35.8507],[73.8689,35.8439],[73.8766,35.8398],[73.8845,35.8389],[73.8906,35.8407],[73.8973,35.8473],[73.9062,35.8489],[73.9071,35.8577],[73.9152,35.859],[73.931,35.8518],[73.9451,35.8497],[73.9443,35.8308],[73.9649,35.8176],[73.9827,35.8131],[74.0013,35.8124],[74.0098,35.8164],[74.0146,35.823],[74.0249,35.8238],[74.0291,35.8187],[74.0285,35.8088],[74.033,35.8032],[74.0339,35.7976],[74.0422,35.7913],[74.0523,35.7693],[74.0684,35.7657],[74.0943,35.7675],[74.1391,35.7237],[74.1554,35.7224],[74.1574,35.7189],[74.149,35.7115],[74.1492,35.702],[74.146,35.6956],[74.1367,35.6897],[74.1384,35.6789],[74.1278,35.6634],[74.1202,35.6627],[74.1151,35.6701],[74.1006,35.6763],[74.0852,35.6765],[74.0753,35.6724],[74.0623,35.6716],[74.0597,35.6692],[74.0483,35.669],[74.0411,35.6554],[74.0349,35.6504],[74.0347,35.6409],[74.0258,35.6337],[74.0238,35.6266],[74.0174,35.6199],[74.0135,35.6182],[73.9994,35.6208],[73.9778,35.6195],[73.9694,35.6097],[73.9603,35.5929],[73.9316,35.5732],[73.9257,35.5657],[73.9238,35.5559],[73.9164,35.5501],[73.8962,35.5417],[73.8723,35.5373],[73.8578,35.5257],[73.8438,35.5258],[73.8316,35.5182],[73.8,35.5225],[73.7905,35.5177],[73.7817,35.5202],[73.7749,35.5166],[73.7603,35.5209],[73.7402,35.519],[73.737,35.529],[73.7296,35.5327],[73.7099,35.5327],[73.6739,35.5256],[73.6664,35.526],[73.6563,35.5289],[73.6504,35.5335],[73.6381,35.5354],[73.6261,35.5457],[73.6199,35.5479],[73.5941,35.5394],[73.578,35.5385],[73.5824,35.5721],[73.5797,35.5884],[73.5553,35.621],[73.5268,35.6522],[73.5091,35.6821],[73.5105,35.7024],[73.5159,35.7092],[73.5171,35.7161],[73.5173,35.754],[73.5227,35.7812],[73.5227,35.792],[73.4956,35.826],[73.4929,35.8504],[73.4938,35.8731],[73.4983,35.8733],[73.5174,35.8584],[73.5229,35.8571],[73.5292,35.8574],[73.537,35.8614],[73.5388,35.8764],[73.5433,35.8819],[73.5545,35.8819],[73.5677,35.8707]]]}},{"type":"Feature","properties":{"district":"Tangir","division":"Diamer Division"},"geometry":{"type":"Polygon","coordinates":[[[73.35,35.9358],[73.3629,35.9243],[73.3698,35.9035],[73.3849,35.9051],[73.3996,35.8885],[73.4069,35.8843],[73.4352,35.8822],[73.4728,35.8692],[73.4783,35.8695],[73.4884,35.8748],[73.4938,35.8731],[73.4929,35.8504],[73.4956,35.826],[73.5227,35.792],[73.5227,35.7812],[73.5173,35.754],[73.5171,35.7161],[73.5159,35.7092],[73.5105,35.7024],[73.5091,35.6821],[73.5268,35.6522],[73.5553,35.621],[73.5797,35.5884],[73.5824,35.5721],[73.578,35.5385],[73.5579,35.527],[73.5478,35.5295],[73.5254,35.5434],[73.5215,35.5414],[73.5187,35.5355],[73.5103,35.5323],[73.4964,35.5319],[73.4903,35.535],[73.4851,35.5416],[73.4759,35.5414],[73.4678,35.5352],[73.434,35.5299],[73.4118,35.5212],[73.3986,35.5368],[73.3999,35.5552],[73.3971,35.5604],[73.3959,35.5747],[73.3992,35.5843],[73.3623,35.5971],[73.3517,35.6164],[73.346,35.633],[73.3377,35.6384],[73.3295,35.6497],[73.3311,35.6547],[73.3294,35.6588],[73.3244,35.6619],[73.3209,35.6592],[73.3074,35.6573],[73.293,35.6614],[73.2833,35.6715],[73.2403,35.6592],[73.2356,35.6608],[73.2258,35.6703],[73.2148,35.6668],[73.2027,35.6694],[73.1934,35.6741],[73.1796,35.689],[73.163,35.6993],[73.1525,35.7028],[73.1436,35.714],[73.1294,35.7141],[73.1261,35.7214],[73.1137,35.7361],[73.1094,35.7501],[73.1127,35.759],[73.1275,35.762],[73.1581,35.7595],[73.1713,35.7731],[73.1985,35.7838],[73.1964,35.8013],[73.1932,35.8085],[73.2016,35.8187],[73.1851,35.8416],[73.2129,35.8482],[73.224,35.8608],[73.2538,35.8626],[73.2595,35.8755],[73.2508,35.8891],[73.2505,35.8933],[73.2616,35.9111],[73.2607,35.937],[73.2625,35.9388],[73.2698,35.94],[73.2879,35.9361],[73.3089,35.9358],[73.3165,35.9429],[73.3294,35.9472],[73.35,35.9358]]]}},{"type":"Feature","properties":{"district":"Gupis Yasin","division":"Gilgit Division"},"geometry":{"type":"Polygon","coordinates":[[[73.4351,36.7355],[73.4552,36.7322],[73.4644,36.7373],[73.468,36.7368],[73.4823,36.7243],[73.4833,36.7204],[73.4999,36.7147],[73.5159,36.7251],[73.5235,36.7139],[73.5355,36.7139],[73.5503,36.7193],[73.5569,36.7124],[73.5797,36.7253],[73.59,36.7026],[73.596,36.6954],[73.5871,36.6838],[73.5853,36.6757],[73.5896,36.6644],[73.6026,36.6502],[73.6065,36.6396],[73.5959,36.6234],[73.5949,36.6178],[73.5828,36.6107],[73.5807,36.6012],[73.5426,36.5941],[73.5264,36.5856],[73.5228,36.5828],[73.5214,36.5697],[73.5359,36.5711],[73.5485,36.5672],[73.5476,36.5542],[73.5657,36.5494],[73.5657,36.5418],[73.5598,36.533],[73.5657,36.5265],[73.5663,36.5178],[73.5843,36.5113],[73.5948,36.513],[73.6095,36.5036],[73.6179,36.5042],[73.6196,36.4952],[73.634,36.4884],[73.636,36.4796],[73.6326,36.4568],[73.625,36.4517],[73.623,36.4429],[73.6182,36.4412],[73.625,36.4395],[73.6284,36.4353],[73.6417,36.4294],[73.6581,36.4262],[73.6595,36.4152],[73.6538,36.4039],[73.6742,36.3994],[73.6806,36.3935],[73.686,36.383],[73.6925,36.3799],[73.6953,36.3737],[73.6979,36.3517],[73.6948,36.3398],[73.6993,36.3254],[73.7114,36.3158],[73.7126,36.3025],[73.7151,36.3011],[73.716,36.2842],[73.6996,36.2709],[73.6643,36.259],[73.6456,36.2463],[73.6391,36.2342],[73.6414,36.2237],[73.6476,36.2127],[73.6462,36.2031],[73.6411,36.1896],[73.6261,36.1822],[73.6242,36.1706],[73.6205,36.1661],[73.6227,36.1545],[73.6281,36.1511],[73.6253,36.1359],[73.6383,36.1257],[73.6422,36.1189],[73.6507,36.1158],[73.6596,36.0863],[73.6549,36.0613],[73.6341,36.0631],[73.642,36.0464],[73.6416,36.0371],[73.6352,36.0265],[73.6608,36.0091],[73.6795,36.0066],[73.6759,35.9946],[73.694,35.9835],[73.698,35.9756],[73.7177,35.9783],[73.7213,35.9691],[73.7295,35.9587],[73.729,35.9505],[73.7362,35.9438],[73.7455,35.9415],[73.7457,35.937],[73.741,35.9331],[73.7405,35.9286],[73.743,35.9103],[73.7478,35.9063],[73.7426,35.8968],[73.7475,35.8936],[73.7466,35.8857],[73.7539,35.8823],[73.7543,35.8769],[73.7575,35.8721],[73.7604,35.8717],[73.7642,35.8502],[73.7479,35.8532],[73.7416,35.8568],[73.7208,35.8584],[73.6985,35.8716],[73.6874,35.8731],[73.6801,35.8788],[73.6711,35.8719],[73.6388,35.8779],[73.6313,35.8734],[73.6265,35.8632],[73.6223,35.8605],[73.5819,35.8728],[73.5677,35.8707],[73.5545,35.8819],[73.5461,35.8825],[73.5415,35.8806],[73.5388,35.8764],[73.537,35.8614],[73.5292,35.8574],[73.5174,35.8584],[73.4983,35.8733],[73.4884,35.8748],[73.4783,35.8695],[73.4728,35.8692],[73.4352,35.8822],[73.4069,35.8843],[73.3996,35.8885],[73.3849,35.9051],[73.3698,35.9035],[73.3629,35.9243],[73.3505,35.9355],[73.3294,35.9472],[73.3165,35.9429],[73.3089,35.9358],[73.2879,35.9361],[73.2698,35.94],[73.2625,35.9388],[73.2607,35.937],[73.2616,35.9111],[73.2505,35.8933],[73.2508,35.8891],[73.2595,35.8755],[73.2559,35.8656],[73.2508,35.8614],[73.224,35.8608],[73.2129,35.8482],[73.1851,35.8416],[73.1744,35.8549],[73.1678,35.856],[73.1501,35.8397],[73.1375,35.8384],[73.1181,35.8462],[73.1164,35.8498],[73.1024,35.8566],[73.1004,35.8618],[73.086,35.8741],[73.0713,35.8571],[73.0517,35.8585],[73.0444,35.8466],[73.024,35.8401],[73.0133,35.8404],[73.0054,35.8545],[72.9997,35.8592],[72.9847,35.835],[72.9653,35.8374],[72.9451,35.833],[72.9321,35.8283],[72.9116,35.814],[72.9012,35.8142],[72.8949,35.8169],[72.8896,35.8367],[72.8857,35.8407],[72.8932,35.848],[72.8939,35.8517],[72.8917,35.8548],[72.8637,35.8595],[72.8524,35.8568],[72.8436,35.8668],[72.8414,35.8728],[72.8327,35.8776],[72.8254,35.8852],[72.8172,35.8539],[72.7902,35.8628],[72.7842,35.8246],[72.7748,35.8277],[72.7612,35.8184],[72.7502,35.838],[72.7441,35.8394],[72.7354,35.8365],[72.7232,35.8401],[72.727,35.85],[72.7252,35.8545],[72.7044,35.8549],[72.6979,35.8605],[72.6844,35.8502],[72.6781,35.8401],[72.6646,35.8394],[72.6459,35.8423],[72.6281,35.8474],[72.6299,35.8525],[72.6284,35.8538],[72.6085,35.8608],[72.594,35.8614],[72.585,35.8566],[72.5805,35.8574],[72.5783,35.8643],[72.574,35.8675],[72.5736,35.8743],[72.5555,35.8745],[72.5508,35.878],[72.5367,35.8779],[72.529,35.8803],[72.5261,35.8832],[72.5259,35.891],[72.5111,35.896],[72.5134,35.8997],[72.5109,35.8964],[72.5118,35.903],[72.5071,35.9197],[72.5192,35.9264],[72.5214,35.9369],[72.5313,35.9461],[72.5368,35.9473],[72.5377,35.9566],[72.541,35.9609],[72.5517,35.9646],[72.553,35.9664],[72.5508,35.9694],[72.5437,35.9743],[72.5493,35.9794],[72.5629,35.9833],[72.5675,35.9871],[72.5626,35.9933],[72.5722,36.0015],[72.5714,36.0097],[72.5848,36.018],[72.5864,36.0262],[72.5763,36.0406],[72.5636,36.0473],[72.5355,36.0483],[72.5163,36.0678],[72.5219,36.0918],[72.5191,36.1006],[72.5231,36.1041],[72.5242,36.1096],[72.5304,36.1154],[72.534,36.1234],[72.542,36.1256],[72.5587,36.1366],[72.555,36.1458],[72.5485,36.1508],[72.5507,36.1539],[72.5481,36.1667],[72.5352,36.1736],[72.5409,36.1789],[72.5454,36.1921],[72.5501,36.1959],[72.5503,36.1983],[72.5451,36.2037],[72.5459,36.206],[72.5653,36.2141],[72.5714,36.2244],[72.5727,36.2396],[72.5835,36.2581],[72.6018,36.2617],[72.61,36.269],[72.6236,36.2691],[72.6435,36.2594],[72.6622,36.2579],[72.6739,36.2518],[72.6804,36.2436],[72.6835,36.2434],[72.6842,36.2505],[72.676,36.2647],[72.6925,36.2742],[72.7126,36.2757],[72.7147,36.282],[72.7203,36.2857],[72.7223,36.2907],[72.7347,36.3001],[72.7487,36.3009],[72.7584,36.2964],[72.7748,36.3157],[72.7907,36.3271],[72.8013,36.3293],[72.8095,36.3504],[72.8207,36.3596],[72.8318,36.3611],[72.8402,36.3654],[72.8555,36.3651],[72.8572,36.3749],[72.8759,36.3927],[72.8683,36.4019],[72.8683,36.4117],[72.8743,36.419],[72.8617,36.4287],[72.8584,36.4366],[72.8606,36.4383],[72.8849,36.4422],[72.905,36.461],[72.9112,36.4553],[72.923,36.4532],[72.93,36.454],[72.9461,36.4626],[72.9702,36.4553],[72.9785,36.4565],[72.981,36.4596],[72.981,36.4657],[72.9847,36.4699],[72.9816,36.4755],[72.9831,36.4813],[72.9761,36.4868],[72.9737,36.4945],[72.987,36.5017],[72.9795,36.5127],[72.9915,36.5132],[73.0084,36.5212],[73.0518,36.5344],[73.0533,36.5403],[73.0499,36.5463],[73.0527,36.5566],[73.0584,36.5627],[73.0705,36.5637],[73.0754,36.5693],[73.0765,36.5942],[73.0871,36.5992],[73.0958,36.5995],[73.099,36.6026],[73.0908,36.613],[73.0695,36.627],[73.07,36.6342],[73.0756,36.6425],[73.0703,36.6449],[73.0699,36.6498],[73.0737,36.6562],[73.0749,36.6672],[73.0681,36.6766],[73.0692,36.6846],[73.0657,36.6895],[73.0659,36.6944],[73.0729,36.6902],[73.0745,36.6847],[73.0801,36.6806],[73.1001,36.6775],[73.1086,36.6808],[73.1252,36.6968],[73.159,36.7109],[73.1725,36.7252],[73.1777,36.721],[73.1823,36.7119],[73.1817,36.6941],[73.1845,36.6908],[73.1878,36.6906],[73.214,36.6972],[73.2327,36.6968],[73.2393,36.7022],[73.2397,36.7069],[73.2467,36.7051],[73.2685,36.7063],[73.293,36.702],[73.306,36.7034],[73.3134,36.7106],[73.3465,36.7186],[73.3513,36.737],[73.3686,36.7342],[73.3828,36.7353],[73.3922,36.7327],[73.4092,36.738],[73.4174,36.7452],[73.4223,36.7458],[73.4283,36.7441],[73.4351,36.7355]]]}},{"type":"Feature","properties":{"district":"Roundu","division":"Baltistan Division"},"geometry":{"type":"Polygon","coordinates":[[[74.9421,35.8274],[74.9645,35.8235],[74.9748,35.8183],[74.9866,35.8068],[75.0181,35.7967],[75.0598,35.7681],[75.063,35.7675],[75.084,35.7755],[75.0923,35.7653],[75.114,35.756],[75.13,35.7415],[75.1564,35.7324],[75.1757,35.7149],[75.1763,35.7054],[75.1705,35.701],[75.1606,35.6981],[75.159,35.6949],[75.1624,35.6794],[75.1757,35.6631],[75.1867,35.6632],[75.193,35.6591],[75.2033,35.6609],[75.2124,35.656],[75.2233,35.656],[75.2519,35.6334],[75.2592,35.6326],[75.2749,35.6169],[75.2805,35.6078],[75.2846,35.606],[75.296,35.6055],[75.3488,35.6151],[75.384,35.6146],[75.4075,35.6188],[75.4337,35.6186],[75.4467,35.6135],[75.4528,35.6083],[75.4645,35.59],[75.4711,35.5722],[75.4786,35.5609],[75.5051,35.5349],[75.514,35.5227],[75.5422,35.4987],[75.5755,35.4898],[75.585,35.4825],[75.5567,35.4688],[75.5075,35.4286],[75.495,35.4237],[75.4758,35.4499],[75.4747,35.4587],[75.4544,35.4652],[75.4481,35.4589],[75.4337,35.4541],[75.4128,35.4382],[75.396,35.4309],[75.3911,35.4265],[75.3876,35.4143],[75.3667,35.4053],[75.3544,35.3944],[75.3374,35.3915],[75.3283,35.3868],[75.3199,35.3778],[75.317,35.368],[75.3013,35.3529],[75.2673,35.3531],[75.1815,35.3386],[75.1676,35.3335],[75.1555,35.3459],[75.128,35.3579],[75.114,35.3791],[75.1065,35.3846],[75.0986,35.3863],[75.0972,35.3882],[75.1018,35.3946],[75.1013,35.4012],[75.0869,35.42],[75.0789,35.4184],[75.069,35.42],[75.0654,35.4246],[75.0656,35.4308],[75.0585,35.4347],[75.0461,35.4342],[75.0392,35.439],[75.0255,35.4363],[75.0156,35.4466],[75.015,35.4606],[75.006,35.4757],[74.998,35.4755],[74.99,35.47],[74.9733,35.4755],[74.9668,35.4801],[74.9597,35.4924],[74.9533,35.4961],[74.9469,35.511],[74.9254,35.5245],[74.907,35.5236],[74.9027,35.536],[74.8835,35.5435],[74.8633,35.5582],[74.8612,35.5616],[74.8704,35.5717],[74.8699,35.5756],[74.8659,35.5806],[74.8598,35.5806],[74.8516,35.5864],[74.8344,35.6008],[74.8328,35.6056],[74.834,35.6162],[74.8514,35.6187],[74.8554,35.6319],[74.861,35.6354],[74.8674,35.6354],[74.8727,35.6407],[74.8708,35.6597],[74.8777,35.6679],[74.8784,35.678],[74.8706,35.6963],[74.8621,35.7055],[74.8454,35.7099],[74.8287,35.7206],[74.8218,35.7209],[74.8129,35.7133],[74.7959,35.7115],[74.7799,35.7181],[74.7698,35.7122],[74.7508,35.7124],[74.7391,35.7209],[74.7455,35.7207],[74.7587,35.7257],[74.7996,35.7496],[74.8209,35.7526],[74.8309,35.7584],[74.8363,35.7787],[74.8397,35.7839],[74.8787,35.8044],[74.8917,35.816],[74.8958,35.8236],[74.8977,35.8406],[74.9308,35.8344],[74.9421,35.8274]]]}},{"type":"Feature","properties":{"district":"Ghanche","division":"Baltistan Division"},"geometry":{"type":"Polygon","coordinates":[[[76.7089,35.4374],[76.7295,35.422],[76.7557,35.456],[76.7654,35.4788],[76.7908,35.5152],[76.8325,35.5648],[76.8437,35.5854],[76.86,35.5918],[76.8638,35.5962],[76.8829,35.6054],[76.902,35.6213],[76.9045,35.6166],[76.9138,35.6113],[76.9346,35.6085],[76.9654,35.5933],[76.9742,35.5941],[76.988,35.5997],[77.0007,35.6131],[77.0161,35.6078],[77.0288,35.5997],[77.0548,35.5995],[77.0654,35.5966],[77.0701,35.5937],[77.0864,35.5706],[77.0928,35.5661],[77.1108,35.5635],[77.1196,35.5566],[77.1286,35.5555],[77.1377,35.5509],[77.1494,35.5388],[77.1686,35.5358],[77.1922,35.5204],[77.2087,35.5203],[77.2288,35.5288],[77.249,35.5292],[77.2603,35.5352],[77.2648,35.5403],[77.2757,35.5358],[77.2843,35.5376],[77.2936,35.544],[77.3066,35.5442],[77.3117,35.5423],[77.3143,35.5364],[77.3183,35.5375],[77.3281,35.5345],[77.3315,35.5293],[77.3395,35.5254],[77.3404,35.5177],[77.3369,35.513],[77.343,35.4995],[77.3501,35.4937],[77.359,35.4941],[77.354,35.5006],[77.3665,35.4996],[77.3688,35.4968],[77.3668,35.4911],[77.3763,35.476],[77.3911,35.4722],[77.4005,35.4761],[77.4232,35.4735],[77.441,35.465],[77.4797,35.4842],[77.4997,35.4839],[77.5084,35.4878],[77.5253,35.4873],[77.5359,35.4914],[77.5439,35.4858],[77.5588,35.4907],[77.5811,35.4828],[77.5783,35.4742],[77.5859,35.4706],[77.6084,35.4741],[77.6293,35.4639],[77.6366,35.4645],[77.6389,35.4652],[77.6391,35.4695],[77.6367,35.4858],[77.655,35.4865],[77.6713,35.469],[77.6799,35.4649],[77.6818,35.4595],[77.6896,35.4529],[77.6951,35.463],[77.7096,35.462],[77.735,35.4677],[77.7283,35.477],[77.7437,35.4982],[77.7503,35.4973],[77.7602,35.5046],[77.7891,35.4968],[77.7972,35.5],[77.7972,35.5072],[77.8017,35.5115],[77.8046,35.5208],[77.8161,35.5227],[77.8229,35.5168],[77.829,35.5164],[77.0107,35.0094],[77.0133,34.999],[77.0079,34.9938],[77.0085,34.9719],[77.003,34.9518],[76.9981,34.9471],[76.9943,34.935],[76.8706,34.9853],[76.8615,34.9642],[76.8236,34.958],[76.8127,34.9512],[76.7984,34.9481],[76.7723,34.9317],[76.7642,34.9329],[76.7587,34.9393],[76.75,34.912],[76.762,34.8919],[76.7575,34.8865],[76.751,34.8278],[76.7146,34.8081],[76.685,34.7479],[76.6747,34.7487],[76.6674,34.7524],[76.6539,34.7505],[76.6415,34.7542],[76.6288,34.7502],[76.6019,34.7475],[76.5831,34.7564],[76.5353,34.7708],[76.5073,34.7956],[76.485,34.7981],[76.4935,34.805],[76.4959,34.8128],[76.4926,34.8185],[76.4706,34.8297],[76.4557,34.8443],[76.4516,34.8631],[76.452,34.8733],[76.4112,34.9426],[76.4086,34.9567],[76.4137,34.9756],[76.4128,34.9826],[76.4091,34.9878],[76.3973,34.9951],[76.393,35.0015],[76.3947,35.0134],[76.3924,35.0155],[76.3772,35.018],[76.3602,35.0298],[76.3502,35.0333],[76.3369,35.0468],[76.2941,35.0474],[76.2861,35.0505],[76.27,35.066],[76.205,35.0729],[76.1933,35.0775],[76.1783,35.0795],[76.1634,35.0861],[76.1378,35.1045],[76.126,35.108],[76.1036,35.1198],[76.028,35.1433],[76.0154,35.1439],[76.0027,35.1497],[75.9864,35.1514],[75.9542,35.1805],[75.9388,35.1903],[75.9354,35.1943],[75.9345,35.2069],[75.9136,35.2254],[75.9109,35.2317],[75.9094,35.2388],[75.9124,35.2595],[75.9309,35.296],[75.9541,35.3204],[75.9668,35.3228],[75.9964,35.3595],[76.006,35.3931],[76.0031,35.4224],[76.0049,35.4386],[76.0102,35.4549],[76.0196,35.4661],[76.0824,35.5025],[76.1323,35.5128],[76.1597,35.5248],[76.1805,35.542],[76.1889,35.5539],[76.2243,35.5903],[76.2496,35.6067],[76.2899,35.6215],[76.3003,35.6273],[76.3117,35.6387],[76.3551,35.6603],[76.4293,35.6843],[76.4458,35.6877],[76.4577,35.6868],[76.4868,35.6592],[76.4907,35.6525],[76.5621,35.5965],[76.5877,35.5853],[76.6181,35.5655],[76.6544,35.5291],[76.6551,35.5227],[76.6636,35.5082],[76.6709,35.4888],[76.6753,35.4692],[76.6819,35.4586],[76.6864,35.4539],[76.6957,35.4511],[76.7089,35.4374]]]}},{"type":"Feature","properties":{"district":"Shigar","division":"Baltistan Division"},"geometry":{"type":"Polygon","coordinates":[[[75.3942,36.2108],[75.4097,36.2087],[75.4172,36.2051],[75.4227,36.1977],[75.4248,36.1823],[75.4314,36.1689],[75.4691,36.1462],[75.4814,36.1417],[75.5299,36.137],[75.5754,36.1217],[75.5848,36.1241],[75.6018,36.1226],[75.6577,36.1259],[75.6731,36.1308],[75.6752,36.1402],[75.683,36.1392],[75.7003,36.1222],[75.7332,36.1024],[75.7332,36.0934],[75.7232,36.0873],[75.7249,36.0747],[75.7396,36.0649],[75.7547,36.0639],[75.7556,36.0513],[75.7679,36.0371],[75.7687,36.0286],[75.7789,36.0169],[75.8128,36.012],[75.8341,36.0215],[75.8436,36.0198],[75.8566,36.0215],[75.8657,36.0194],[75.89,36.0375],[75.9018,36.0426],[75.91,36.0432],[75.9112,36.0477],[75.9089,36.0554],[75.9127,36.0583],[75.9304,36.0598],[75.9421,36.07],[75.9522,36.0669],[75.9485,36.0614],[75.96,36.0437],[75.9885,36.0262],[75.9923,36.0208],[76.0098,36.0164],[76.0134,36.0134],[76.0225,36.0147],[76.0245,36.0196],[76.0304,36.0213],[76.0326,36.0249],[76.0375,36.0229],[76.0434,36.0267],[76.0826,36.0249],[76.0972,36.0201],[76.1028,36.0165],[76.0972,35.9991],[76.1042,35.9939],[76.103,35.9878],[76.108,35.9827],[76.1074,35.9763],[76.1138,35.9735],[76.1142,35.9695],[76.1212,35.9678],[76.1275,35.9611],[76.1365,35.9575],[76.1389,35.9487],[76.1459,35.9418],[76.1472,35.9302],[76.1519,35.9298],[76.1613,35.9191],[76.1606,35.9095],[76.1496,35.8921],[76.1544,35.8831],[76.1503,35.8748],[76.1552,35.8661],[76.1538,35.8589],[76.1461,35.8559],[76.1424,35.849],[76.146,35.8442],[76.1479,35.8354],[76.1748,35.8183],[76.1802,35.8231],[76.1965,35.8217],[76.2152,35.827],[76.2211,35.8265],[76.2249,35.8331],[76.2241,35.8416],[76.2257,35.8421],[76.2667,35.8384],[76.2694,35.8406],[76.3027,35.8421],[76.3124,35.8316],[76.324,35.8372],[76.3421,35.8305],[76.357,35.8307],[76.3613,35.8271],[76.3561,35.8374],[76.3579,35.8506],[76.3537,35.8563],[76.3623,35.8606],[76.3627,35.8649],[76.3707,35.8649],[76.3765,35.8617],[76.3774,35.8585],[76.3885,35.8602],[76.3952,35.8587],[76.3985,35.855],[76.4111,35.8534],[76.423,35.8556],[76.43,35.8534],[76.4369,35.8608],[76.4473,35.8657],[76.4496,35.8747],[76.4574,35.884],[76.474,35.8916],[76.4863,35.8878],[76.5,35.8893],[76.5148,35.8816],[76.5344,35.8995],[76.5449,35.904],[76.5428,35.9112],[76.545,35.9247],[76.5476,35.9284],[76.5619,35.9238],[76.567,35.9271],[76.5784,35.9232],[76.5829,35.9198],[76.585,35.9138],[76.5998,35.9016],[76.5744,35.8707],[76.5846,35.8649],[76.5896,35.8436],[76.5695,35.8296],[76.5671,35.8226],[76.5705,35.8117],[76.5863,35.8043],[76.5922,35.7969],[76.5964,35.7851],[76.5927,35.7834],[76.5908,35.7773],[76.6067,35.7724],[76.6179,35.7608],[76.6296,35.7717],[76.6447,35.7729],[76.6511,35.769],[76.6554,35.759],[76.6786,35.7574],[76.6991,35.7508],[76.7018,35.7442],[76.6967,35.7338],[76.6965,35.7247],[76.7052,35.7237],[76.7142,35.7166],[76.7297,35.7101],[76.7463,35.6888],[76.7599,35.6807],[76.7586,35.6713],[76.7629,35.6636],[76.7794,35.6605],[76.8072,35.6679],[76.8148,35.6724],[76.8254,35.6703],[76.8365,35.6726],[76.8429,35.6715],[76.8502,35.6765],[76.8555,35.6724],[76.8668,35.6536],[76.8877,35.6413],[76.8893,35.6365],[76.902,35.6213],[76.8829,35.6054],[76.8638,35.5962],[76.86,35.5918],[76.8437,35.5854],[76.8266,35.5567],[76.7908,35.5152],[76.7654,35.4788],[76.7557,35.456],[76.7295,35.422],[76.7089,35.4374],[76.6957,35.4511],[76.6864,35.4539],[76.6819,35.4586],[76.6753,35.4692],[76.6709,35.4888],[76.6636,35.5082],[76.6551,35.5227],[76.6544,35.5291],[76.6181,35.5655],[76.5877,35.5853],[76.5621,35.5965],[76.4907,35.6525],[76.4868,35.6592],[76.4577,35.6868],[76.4458,35.6877],[76.4293,35.6843],[76.3551,35.6603],[76.3117,35.6387],[76.3003,35.6273],[76.2899,35.6215],[76.2496,35.6067],[76.2243,35.5903],[76.1889,35.5539],[76.1805,35.542],[76.1597,35.5248],[76.1323,35.5128],[76.0824,35.5025],[76.0196,35.4661],[76.0102,35.4549],[76.0049,35.4386],[76.0031,35.4224],[76.006,35.3931],[75.9964,35.3595],[75.9668,35.3228],[75.9541,35.3204],[75.9309,35.296],[75.9124,35.2595],[75.9094,35.2388],[75.9123,35.2284],[75.8777,35.23],[75.874,35.2324],[75.8713,35.2467],[75.8604,35.2679],[75.8575,35.3061],[75.8409,35.3354],[75.8328,35.3426],[75.8259,35.3451],[75.8146,35.3433],[75.8067,35.3495],[75.8015,35.3478],[75.7949,35.3229],[75.7802,35.3145],[75.7642,35.3145],[75.7604,35.3111],[75.7542,35.3098],[75.7387,35.3101],[75.7286,35.3044],[75.7209,35.3032],[75.7083,35.3177],[75.6975,35.3179],[75.6901,35.315],[75.6864,35.3066],[75.6785,35.2982],[75.664,35.2968],[75.6529,35.3022],[75.6512,35.3167],[75.6596,35.3209],[75.6643,35.3303],[75.6906,35.3585],[75.6837,35.3687],[75.6678,35.3896],[75.6073,35.45],[75.5886,35.4731],[75.585,35.4825],[75.5755,35.4898],[75.5422,35.4987],[75.514,35.5227],[75.5051,35.5349],[75.4847,35.5529],[75.4711,35.5722],[75.4706,35.5773],[75.4579,35.6008],[75.4467,35.6135],[75.4337,35.6186],[75.4075,35.6188],[75.384,35.6146],[75.3488,35.6151],[75.296,35.6055],[75.2846,35.606],[75.2805,35.6078],[75.2749,35.6169],[75.2592,35.6326],[75.2519,35.6334],[75.2233,35.656],[75.2124,35.656],[75.2033,35.6609],[75.193,35.6591],[75.1867,35.6632],[75.1757,35.6631],[75.1624,35.6794],[75.159,35.6917],[75.1606,35.6981],[75.1705,35.701],[75.1763,35.7054],[75.1757,35.7149],[75.1564,35.7324],[75.13,35.7415],[75.114,35.756],[75.0923,35.7653],[75.084,35.7755],[75.063,35.7675],[75.0598,35.7681],[75.0181,35.7967],[74.9866,35.8068],[74.9748,35.8183],[74.9645,35.8235],[74.9465,35.8257],[74.9308,35.8344],[74.8983,35.8406],[74.9545,35.8548],[74.962,35.8586],[74.9673,35.8678],[74.9654,35.8995],[74.9561,35.9227],[74.9469,35.9288],[74.9292,35.9354],[74.9221,35.9354],[74.9351,35.9527],[74.932,35.9619],[74.933,35.9712],[74.9145,35.9787],[74.9093,35.9903],[74.8956,35.9976],[74.8937,36.0043],[74.9046,36.0211],[74.9065,36.0336],[74.9121,36.039],[74.933,36.0426],[74.9432,36.0498],[74.9504,36.0461],[74.9617,36.0474],[75.007,36.0692],[75.0121,36.0857],[75.0164,36.0861],[75.0223,36.0789],[75.0362,36.0695],[75.0396,36.043],[75.0447,36.0371],[75.0574,36.035],[75.0663,36.0409],[75.0781,36.0371],[75.0874,36.0379],[75.1124,36.0481],[75.1181,36.0599],[75.132,36.0745],[75.1346,36.0745],[75.1395,36.0667],[75.1444,36.0688],[75.1622,36.1123],[75.1885,36.1564],[75.1923,36.1884],[75.2066,36.2024],[75.2301,36.1957],[75.2621,36.2027],[75.2758,36.2014],[75.2853,36.2062],[75.2973,36.2196],[75.308,36.2265],[75.3123,36.233],[75.3327,36.2452],[75.3542,36.2453],[75.3614,36.2387],[75.3655,36.2287],[75.3755,36.217],[75.3942,36.2108]]]}}]}